{"type":"FeatureCollection","features":[{"type":"Feature","id":457769625,"properties":{"highway":"service","surface":"unpaved","tiger:cfcc":"A41","tiger:county":"Meagher, MT"},"geometry":{"type":"LineString","coordinates":[[-110.6905931,46.4192904],[-110.6903463,46.4191758],[-110.6903151,46.4190632],[-110.6904592,46.4187432],[-110.6905812,46.4182739],[-110.690967,46.4178867],[-110.6909732,46.4177662],[-110.6902712,46.4161026],[-110.6901707,46.4153063],[-110.6902174,46.4140941],[-110.6904683,46.4127657],[-110.6907594,46.412075],[-110.6909117,46.4115849],[-110.6908634,46.41097],[-110.6910223,46.4105445],[-110.6909995,46.4101261],[-110.6907957,46.4097413],[-110.6907371,46.4093764],[-110.6907363,46.4090476],[-110.6909592,46.4085318],[-110.6911422,46.4076694],[-110.6913139,46.4070678],[-110.6913531,46.4069708],[-110.6917155,46.4059069],[-110.6917187,46.4055924],[-110.6915269,46.4052362],[-110.6913441,46.4050324],[-110.6910416,46.4048546],[-110.6902285,46.4046699],[-110.6899496,46.4044059],[-110.6884902,46.4037266],[-110.6876877,46.4032443],[-110.6871706,46.4030127],[-110.6866127,46.4028684],[-110.686205,46.4026871],[-110.6858842,46.4023694],[-110.6850123,46.4016583],[-110.6844562,46.401015],[-110.684049,46.4004492],[-110.6837802,46.4002604],[-110.6834101,46.4000495],[-110.6830827,46.399893],[-110.6821656,46.3997203],[-110.6814467,46.399502],[-110.6801261,46.3989635],[-110.6789652,46.3984577],[-110.6782587,46.3982912],[-110.6777292,46.3982294],[-110.6774288,46.3981813],[-110.6772152,46.3980675],[-110.6769326,46.3976952],[-110.6762167,46.3972247],[-110.6759536,46.3970196],[-110.6756853,46.3968679],[-110.6752262,46.3967668],[-110.6751113,46.3966423],[-110.6751502,46.3964958],[-110.6754439,46.3962353],[-110.6756835,46.3958198],[-110.6756339,46.3956736],[-110.6752991,46.3954177],[-110.675165,46.3952919],[-110.6749952,46.3950782],[-110.6747154,46.3949157],[-110.6740331,46.3946629],[-110.6737543,46.3945355],[-110.6730729,46.3941227],[-110.6725222,46.3937371],[-110.6721887,46.3935714],[-110.6713655,46.3933418],[-110.6709038,46.3930727],[-110.670396,46.392961],[-110.6701629,46.3928753],[-110.6697335,46.3924606]]}}]}