{"type":"FeatureCollection","features":[{"type":"Feature","id":7602728985,"properties":{"artwork_type":"installation","name":"giant bench","tourism":"artwork"},"geometry":{"type":"Point","coordinates":[103.8561092,1.2805383]}},{"type":"Feature","id":8037018321,"properties":{"amenity":"toilets","fee":"no","wheelchair":"yes"},"geometry":{"type":"Point","coordinates":[103.8605803,1.280742]}},{"type":"Feature","id":8642680417,"properties":{"amenity":"bench","backrest":"yes","description":"made from seating planks from the former National Stadium","material":"wood"},"geometry":{"type":"Point","coordinates":[103.8566328,1.2809359]}},{"type":"Feature","id":8642680418,"properties":{"artwork_type":"installation","name":"Olympic Walk","tourism":"artwork"},"geometry":{"type":"Point","coordinates":[103.8566059,1.2811853]}},{"type":"Feature","id":8642680419,"properties":{"amenity":"bench","backrest":"no","description":"made from seating planks from the former National Stadium","material":"wood"},"geometry":{"type":"Point","coordinates":[103.8563989,1.2805882]}},{"type":"Feature","id":8642680425,"properties":{"board_type":"history","information":"board","name":"Creative Works around the Bay","tourism":"information"},"geometry":{"type":"Point","coordinates":[103.8563644,1.2807297]}},{"type":"Feature","id":12548530298,"properties":{"artist_name":"Botdalo II","description":"Sumatran tiger sculpture made out of waste materials collected from all over Singapore","start_date":"2022-08-01","tourism":"artwork"},"geometry":{"type":"Point","coordinates":[103.8611069,1.2808917]}},{"type":"Feature","id":1315968940,"properties":{"amenity":"taxi"},"geometry":{"type":"Point","coordinates":[103.8599071,1.2838858]}},{"type":"Feature","id":1832237963,"properties":{"amenity":"parking_entrance","maxheight":"4.2","name":"Marina Bay Sands","parking":"underground"},"geometry":{"type":"Point","coordinates":[103.8574685,1.2817723]}},{"type":"Feature","id":1832237967,"properties":{"amenity":"parking","name":"Marina Bay Sands"},"geometry":{"type":"Point","coordinates":[103.8610678,1.2856255]}},{"type":"Feature","id":1832237986,"properties":{"amenity":"parking_entrance"},"geometry":{"type":"Point","coordinates":[103.8576711,1.2816189]}},{"type":"Feature","id":1832238031,"properties":{"amenity":"atm","wheelchair":"yes"},"geometry":{"type":"Point","coordinates":[103.8577541,1.2822439]}},{"type":"Feature","id":1832238038,"properties":{"amenity":"toilets","wheelchair":"yes"},"geometry":{"type":"Point","coordinates":[103.8601269,1.2823733]}},{"type":"Feature","id":1832238042,"properties":{"amenity":"taxi"},"geometry":{"type":"Point","coordinates":[103.8599745,1.2824226]}},{"type":"Feature","id":1832238048,"properties":{"amenity":"toilets","wheelchair":"yes"},"geometry":{"type":"Point","coordinates":[103.8581227,1.2824834]}},{"type":"Feature","id":1832238051,"properties":{"amenity":"toilets","wheelchair":"yes"},"geometry":{"type":"Point","coordinates":[103.8588957,1.2825865]}},{"type":"Feature","id":1832238074,"properties":{"amenity":"toilets","wheelchair":"yes"},"geometry":{"type":"Point","coordinates":[103.8587705,1.2832448]}},{"type":"Feature","id":1832238077,"properties":{"amenity":"atm","wheelchair":"yes"},"geometry":{"type":"Point","coordinates":[103.8593282,1.2832639]}},{"type":"Feature","id":1832238085,"properties":{"amenity":"toilets","wheelchair":"no"},"geometry":{"type":"Point","coordinates":[103.8608744,1.2835545]}},{"type":"Feature","id":1832238112,"properties":{"amenity":"toilets"},"geometry":{"type":"Point","coordinates":[103.8610666,1.2839876]}},{"type":"Feature","id":1832238142,"properties":{"amenity":"toilets"},"geometry":{"type":"Point","coordinates":[103.8601548,1.2844671]}},{"type":"Feature","id":1832238144,"properties":{"amenity":"taxi"},"geometry":{"type":"Point","coordinates":[103.8610111,1.284741]}},{"type":"Feature","id":1832238146,"properties":{"amenity":"atm"},"geometry":{"type":"Point","coordinates":[103.859388,1.2847444]}},{"type":"Feature","id":1832238162,"properties":{"amenity":"toilets","wheelchair":"yes"},"geometry":{"type":"Point","coordinates":[103.8595789,1.2853719]}},{"type":"Feature","id":1833770002,"properties":{"addr:city":"Singapore","addr:street":"Olympic Walk","amenity":"ferry_terminal","ferry":"yes","name":"Singapore River Cruise","public_transport":"station","wheelchair":"yes"},"geometry":{"type":"Point","coordinates":[103.8568534,1.2822174]}},{"type":"Feature","id":2424592455,"properties":{"addr:city":"Singapore","addr:housenumber":"1","addr:postcode":"018971","addr:street":"Bayfront Avenue","addr:unit":"Marina Bay Sands North Tower","amenity":"bar","food":"yes","name":"CÉ LA VI","name:it":"Cé La Vi","outdoor_seating":"yes","phone":"+65 6688 7688","smoking":"yes","website":"https://sg.celavi.com/"},"geometry":{"type":"Point","coordinates":[103.860933,1.2846154]}},{"type":"Feature","id":3201094346,"properties":{"amenity":"bicycle_parking","bicycle_parking":"stands","capacity":"28","covered":"no"},"geometry":{"type":"Point","coordinates":[103.860311,1.2861979]}},{"type":"Feature","id":3273154946,"properties":{"amenity":"toilets","wheelchair":"yes"},"geometry":{"type":"Point","coordinates":[103.8589679,1.2841178]}},{"type":"Feature","id":3345269192,"properties":{"amenity":"bicycle_parking","bicycle_parking":"wall_loops","capacity":"16","covered":"yes"},"geometry":{"type":"Point","coordinates":[103.857528,1.2819404]}},{"type":"Feature","id":3390540476,"properties":{"amenity":"arts_centre","check_date":"2026-09-03","email":"sales@marinabaysands.com","name":"Marina Bay Sands Expo and Convention Centre","phone":"+65 6688 3000","wheelchair":"yes"},"geometry":{"type":"Point","coordinates":[103.8585262,1.2823291]}},{"type":"Feature","id":3390540477,"properties":{"amenity":"casino","name":"Marina Bay Sands Casino","wheelchair":"no"},"geometry":{"type":"Point","coordinates":[103.859642,1.2840238]}},{"type":"Feature","id":3812342452,"properties":{"addr:city":"Singapore","addr:housenumber":"Level 57, 10","addr:postcode":"018956","addr:street":"Bayfront Avenue","amenity":"restaurant","name":"Lavo","opening_hours":"Mo-Su 17:00-02:00","phone":"+65 6688 8591","website":"https://lavosingapore.com"},"geometry":{"type":"Point","coordinates":[103.8600277,1.2826411]}},{"type":"Feature","id":3980055545,"properties":{"amenity":"cafe","indoor_seating":"yes","name":"DC Comics Super Heroes Cafe","name:it":"Super Heroes","outdoor_seating":"no","wheelchair":"yes"},"geometry":{"type":"Point","coordinates":[103.8602153,1.2858906]}},{"type":"Feature","id":4302905987,"properties":{"addr:city":"Singapore","addr:country":"SG","addr:housenumber":"10","addr:postcode":"018956","addr:street":"Bayfront Avenue","internet_access":"wlan","internet_access:fee":"no","name":"Marina Bay Sands","name:en":"Marina Bay Sands","name:ko":"마리나 베이 샌즈","name:zh":"濱海灣金沙娛樂城","stars":"5","tourism":"hotel","website":"https://www.marinabaysands.com/","wikidata":"Q548679","wikimedia_commons":"Category:Marina Bay Sands","wikipedia":"en:Marina Bay Sands"},"geometry":{"type":"Point","coordinates":[103.8607226,1.2836965]}},{"type":"Feature","id":4636128590,"properties":{"amenity":"restaurant","indoor_seating":"yes","name":"Cut by Wolfgang Puck","name:en":"Cut by Wolfgang Puck","outdoor_seating":"no","wheelchair":"yes"},"geometry":{"type":"Point","coordinates":[103.8590779,1.2841464]}},{"type":"Feature","id":4680993193,"properties":{"amenity":"cafe","indoor_seating":"yes","name":"TWG Tea","name:en":"TWG Tea","outdoor_seating":"no","wheelchair":"no"},"geometry":{"type":"Point","coordinates":[103.8599481,1.2848446]}},{"type":"Feature","id":4869132423,"properties":{"addr:city":"Singapore","addr:country":"SG","addr:housenumber":"11","addr:postcode":"018957","addr:street":"Bayfront Avenue","amenity":"atm","branch":"Bayfront MRT Station","brand":"UOB","brand:en":"UOB","brand:wikidata":"Q2064074","brand:zh":"大华银行","operator":"UOB","operator:wikidata":"Q2064074","wheelchair":"yes"},"geometry":{"type":"Point","coordinates":[103.8598035,1.2826842]}},{"type":"Feature","id":5037812522,"properties":{"name":"Marina Bay Laser show viewpoint","tourism":"viewpoint","wheelchair":"yes"},"geometry":{"type":"Point","coordinates":[103.8590995,1.2843769]}},{"type":"Feature","id":5350977624,"properties":{"fee":"no","name":"Light Show Viewing Point","tourism":"viewpoint","wheelchair":"limited"},"geometry":{"type":"Point","coordinates":[103.8584382,1.2840841]}},{"type":"Feature","id":5838717887,"properties":{"tourism":"hotel","wheelchair":"yes"},"geometry":{"type":"Point","coordinates":[103.8601452,1.2826028]}},{"type":"Feature","id":6174380285,"properties":{"amenity":"restaurant","cuisine":"japanese","name":"Sen of Japan","wheelchair":"yes"},"geometry":{"type":"Point","coordinates":[103.8597962,1.285792]}},{"type":"Feature","id":6180761786,"properties":{"amenity":"waste_basket","name":"Cortina","shop":"watches"},"geometry":{"type":"Point","coordinates":[103.8608201,1.2838854]}},{"type":"Feature","id":6320479384,"properties":{"amenity":"smoking_area"},"geometry":{"type":"Point","coordinates":[103.8582683,1.2836691]}},{"type":"Feature","id":6446571426,"properties":{"image":"https://images.mapillary.com/FEiXfdMKhoQSSm72E7Dtyg/thumb-2048.jpg","information":"map","mapillary":"501466834378133","tourism":"information"},"geometry":{"type":"Point","coordinates":[103.8605054,1.2862257]}},{"type":"Feature","id":6446571460,"properties":{"artist_name":"Anish Kapoor","artwork_type":"installation","image":"https://images.mapillary.com/8pisFVb76BYKb2ob5Uvtxw/thumb-2048.jpg","mapillary":"2626685824297316","material":"steel","name":"Sky Mirror","tourism":"artwork"},"geometry":{"type":"Point","coordinates":[103.8598014,1.2863132]}},{"type":"Feature","id":6448634630,"properties":{"image":"https://images.mapillary.com/fYafiDeUUpH_ANgfOu3Lcw/thumb-2048.jpg","information":"guidepost","mapillary":"197511768754769","tourism":"information"},"geometry":{"type":"Point","coordinates":[103.8593066,1.2827829]}},{"type":"Feature","id":6448634633,"properties":{"image":"https://images.mapillary.com/Oy7OOfbcT8P1kBB8_3SyeA/thumb-2048.jpg","mapillary":"1785407144978212","tourism":"artwork"},"geometry":{"type":"Point","coordinates":[103.8602409,1.2830361]}},{"type":"Feature","id":6449190570,"properties":{"artwork_type":"installation","image":"https://images.mapillary.com/k35ZwUhBci_ULF0jT04NVg/thumb-2048.jpg","mapillary":"1181940332233836","material":"metal","tourism":"artwork","wheelchair":"yes"},"geometry":{"type":"Point","coordinates":[103.8586412,1.2846409]}},{"type":"Feature","id":6449190571,"properties":{"amenity":"fountain","image":"https://images.mapillary.com/wmR4gBbrXX1ZcJZavccI_A/thumb-2048.jpg","mapillary":"893230141240533"},"geometry":{"type":"Point","coordinates":[103.8574677,1.2846629]}},{"type":"Feature","id":6449190573,"properties":{"image":"https://images.mapillary.com/-edfeQAMOcxT7YRmR8MVjw/thumb-2048.jpg","mapillary":"834732173791888","tourism":"viewpoint"},"geometry":{"type":"Point","coordinates":[103.8607868,1.2836454]}},{"type":"Feature","id":6449716756,"properties":{"image":"https://images.mapillary.com/JUIDYW9eqi7atFB_oc3tKg/thumb-2048.jpg","mapillary":"333925221423131","tourism":"viewpoint","wheelchair":"yes"},"geometry":{"type":"Point","coordinates":[103.8603027,1.2866332]}},{"type":"Feature","id":6449716761,"properties":{"image":"https://images.mapillary.com/IXTfqwp9w9Ck9JWX1DRwxQ/thumb-2048.jpg","mapillary":"315199663309192","tourism":"viewpoint","wheelchair":"yes"},"geometry":{"type":"Point","coordinates":[103.8604716,1.2871631]}},{"type":"Feature","id":6449716763,"properties":{"image":"https://images.mapillary.com/iIYhEk--iZkV_bN3o33wsg/thumb-2048.jpg","mapillary":"1051403875383637","tourism":"viewpoint","wheelchair":"yes"},"geometry":{"type":"Point","coordinates":[103.86051,1.2877226]}},{"type":"Feature","id":6691013810,"properties":{"brand":"Sephora","brand:wikidata":"Q2408041","brand:wikipedia":"en:Sephora","name":"Sephora","shop":"cosmetics"},"geometry":{"type":"Point","coordinates":[103.8588756,1.283513]}},{"type":"Feature","id":6712125275,"properties":{"brand":"Pandora","brand:wikidata":"Q2241604","brand:wikipedia":"en:Pandora (jewelry)","name":"Pandora","shop":"jewelry"},"geometry":{"type":"Point","coordinates":[103.8590623,1.2838191]}},{"type":"Feature","id":6771489687,"properties":{"addr:city":"Singapore","addr:housenumber":"2","addr:postcode":"018972","addr:street":"Bayfront Avenue","addr:unit":"#B2-56","amenity":"cafe","brand":"Starbucks","brand:wikidata":"Q37158","brand:wikipedia":"en:Starbucks","cuisine":"coffee_shop","indoor_seating":"yes","name":"Starbucks","official_name":"Starbucks Coffee","outdoor_seating":"no","takeaway":"yes"},"geometry":{"type":"Point","coordinates":[103.8601111,1.2855822]}},{"type":"Feature","id":6786871620,"properties":{"amenity":"cafe","indoor_seating":"yes","name":"Jasons Deli","outdoor_seating":"no","wheelchair":"yes"},"geometry":{"type":"Point","coordinates":[103.859982,1.2853436]}},{"type":"Feature","id":6790302212,"properties":{"brand":"Rolex","brand:wikidata":"Q62288","brand:wikipedia":"en:Rolex","name":"Rolex","shop":"watches"},"geometry":{"type":"Point","coordinates":[103.8594227,1.2840462]}},{"type":"Feature","id":6790389168,"properties":{"name":"The Hour Glass","shop":"watches"},"geometry":{"type":"Point","coordinates":[103.859524,1.2842965]}},{"type":"Feature","id":6792510372,"properties":{"brand":"Swatch","brand:wikidata":"Q573422","brand:wikipedia":"en:Swatch","name":"Swatch","shop":"watches"},"geometry":{"type":"Point","coordinates":[103.8586842,1.2828579]}},{"type":"Feature","id":6810862802,"properties":{"brand":"Swarovski","brand:wikidata":"Q611115","brand:wikipedia":"en:Swarovski","name":"Swarovski","shop":"jewelry"},"geometry":{"type":"Point","coordinates":[103.8576559,1.2820563]}},{"type":"Feature","id":7147947015,"properties":{"amenity":"parking","name":"Marina Bay Sands"},"geometry":{"type":"Point","coordinates":[103.8610186,1.2856301]}},{"type":"Feature","id":7212930290,"properties":{"amenity":"parking_entrance"},"geometry":{"type":"Point","coordinates":[103.8605495,1.2849614]}},{"type":"Feature","id":7447993943,"properties":{"amenity":"food_court","indoor_seating":"yes","name":"Rasapura Masters","outdoor_seating":"no"},"geometry":{"type":"Point","coordinates":[103.8596987,1.2857318]}},{"type":"Feature","id":7447993944,"properties":{"artist_name":"teamLab","name":"Digital Light Canvas","tourism":"artwork"},"geometry":{"type":"Point","coordinates":[103.8600769,1.285433]}},{"type":"Feature","id":8037018319,"properties":{"amenity":"toilets","fee":"no","wheelchair":"yes"},"geometry":{"type":"Point","coordinates":[103.8614181,1.2816581]}},{"type":"Feature","id":8037018320,"properties":{"amenity":"toilets","fee":"no","wheelchair":"yes"},"geometry":{"type":"Point","coordinates":[103.8613199,1.2814446]}},{"type":"Feature","id":8165050579,"properties":{"addr:city":"Singapore","addr:housenumber":"2","addr:street":"Bayfront Avenue","branch":"Marina Bay Sands","brand":"Louis Vuitton","brand:wikidata":"Q191485","brand:wikipedia":"en:Louis Vuitton","name":"Louis Vuitton","shop":"clothes","website":"https://eu.louisvuitton.com/"},"geometry":{"type":"Point","coordinates":[103.8585395,1.2851936]}},{"type":"Feature","id":8642680420,"properties":{"board_type":"history","information":"board","name":"The Evolution of the City's Skyline","tourism":"information"},"geometry":{"type":"Point","coordinates":[103.8567766,1.2813643]}},{"type":"Feature","id":8642680421,"properties":{"board_type":"sport","information":"board","name":"A Walk along the Bay","tourism":"information"},"geometry":{"type":"Point","coordinates":[103.8569668,1.2816702]}},{"type":"Feature","id":8642680422,"properties":{"amenity":"bench","backrest":"no","description":"made from seating planks from the former National Stadium","material":"wood"},"geometry":{"type":"Point","coordinates":[103.8569025,1.2814299]}},{"type":"Feature","id":9048624194,"properties":{"addr:city":"Singapore","addr:country":"SG","addr:housenumber":"2","addr:postcode":"018972","addr:street":"Bayfront Avenue","addr:unit":"#B2-54/55","air_conditioning":"yes","amenity":"restaurant","branch":"Marina Bay Sands","brand":"Ippudo","brand:en":"Ippudo","brand:ja":"一風堂","brand:wikidata":"Q6065417","brand:wikipedia":"en:Ippudo","cuisine":"ramen","diet:halal":"no","indoor_seating":"yes","name":"Ippudo","name:en":"Ippudo","name:ja":"一風堂","opening_hours":"Mo-Su 11:00-22:00","outdoor_seating":"no","phone":"+65 66887064","takeaway":"yes","website":"http://www.ippudo.com.sg/"},"geometry":{"type":"Point","coordinates":[103.8603515,1.2852624]}},{"type":"Feature","id":10048423474,"properties":{"tourism":"viewpoint"},"geometry":{"type":"Point","coordinates":[103.856707,1.282033]}},{"type":"Feature","id":10048423476,"properties":{"addr:city":"Singapore","artist:wikidata":"Q66018428","artist_name":"Alvin Tan;Veera Sekaran;Emily Sim","artwork_type":"sculpture","material":"wood","name":"Here is SG","tourism":"artwork","wikidata":"Q114150001","wikimedia_commons":"Category:Here is SG"},"geometry":{"type":"Point","coordinates":[103.856863,1.2821343]}},{"type":"Feature","id":10121106718,"properties":{"amenity":"bar","name":"DB Bistro"},"geometry":{"type":"Point","coordinates":[103.8595484,1.2857921]}},{"type":"Feature","id":10310520680,"properties":{"description":"Light and Water Show at Marina Bay Sands","name":"Spectra","opening_hours":"Mo-Th,Su 20:00-20:15,21:00-21:15; Fr-Sa 20:00-20:15,21:00-21:15,22:00-22:15","tourism":"attraction","website":"https://www.marinabaysands.com/attractions/spectra.html"},"geometry":{"type":"Point","coordinates":[103.8579351,1.2844155]}},{"type":"Feature","id":10796548380,"properties":{"amenity":"bicycle_rental","bicycle_rental":"dropoff_point","id":"DTC-0017","name":"DTC-0017"},"geometry":{"type":"Point","coordinates":[103.8573137,1.2813239]}},{"type":"Feature","id":10831644145,"properties":{"amenity":"fountain"},"geometry":{"type":"Point","coordinates":[103.8563123,1.2855678]}},{"type":"Feature","id":11361584770,"properties":{"addr:housenumber":"6","addr:postcode":"018974","addr:street":"Bayfront Avenue","fee":"yes","internet_access":"wlan","name":"ArtScience Museum","opening_hours":"Mo-Su 10:00-19:00","phone":"+6566888888","tourism":"museum","website":"https://marinabaysands.com"},"geometry":{"type":"Point","coordinates":[103.8592297,1.2861382]}},{"type":"Feature","id":11482830573,"properties":{"image":"https://images.mapillary.com/kAVNcysE7B2rFS5SfSAWqA/thumb-2048.jpg","mapillary":"2000734413397861","tourism":"artwork"},"geometry":{"type":"Point","coordinates":[103.8604725,1.2829379]}},{"type":"Feature","id":11876023864,"properties":{"amenity":"bicycle_parking","bicycle_parking":"stands","capacity":"8","covered":"yes"},"geometry":{"type":"Point","coordinates":[103.8575717,1.2820311]}},{"type":"Feature","id":12846856838,"properties":{"amenity":"fountain"},"geometry":{"type":"Point","coordinates":[103.85759,1.2845984]}},{"type":"Feature","id":12846856839,"properties":{"amenity":"fountain"},"geometry":{"type":"Point","coordinates":[103.8574188,1.2840653]}},{"type":"Feature","id":12846856840,"properties":{"amenity":"fountain"},"geometry":{"type":"Point","coordinates":[103.8579588,1.2850283]}},{"type":"Feature","id":12846856841,"properties":{"amenity":"fountain"},"geometry":{"type":"Point","coordinates":[103.8576719,1.284546]}},{"type":"Feature","id":12846856842,"properties":{"amenity":"fountain"},"geometry":{"type":"Point","coordinates":[103.8578515,1.2840633]}},{"type":"Feature","id":12846856843,"properties":{"amenity":"fountain"},"geometry":{"type":"Point","coordinates":[103.8579033,1.2841958]}},{"type":"Feature","id":12846856844,"properties":{"amenity":"fountain"},"geometry":{"type":"Point","coordinates":[103.8580939,1.2845366]}},{"type":"Feature","id":12846856845,"properties":{"amenity":"fountain"},"geometry":{"type":"Point","coordinates":[103.8581723,1.2846523]}},{"type":"Feature","id":12846856846,"properties":{"amenity":"fountain"},"geometry":{"type":"Point","coordinates":[103.8574487,1.284464]}},{"type":"Feature","id":12846856847,"properties":{"amenity":"fountain"},"geometry":{"type":"Point","coordinates":[103.8576223,1.2847699]}},{"type":"Feature","id":12846856848,"properties":{"amenity":"fountain"},"geometry":{"type":"Point","coordinates":[103.858451,1.2848278]}},{"type":"Feature","id":12846856849,"properties":{"amenity":"fountain"},"geometry":{"type":"Point","coordinates":[103.8578506,1.2837416]}},{"type":"Feature","id":12846856850,"properties":{"amenity":"fountain"},"geometry":{"type":"Point","coordinates":[103.8579015,1.2838944]}},{"type":"Feature","id":12846856851,"properties":{"amenity":"fountain"},"geometry":{"type":"Point","coordinates":[103.8579547,1.2840204]}},{"type":"Feature","id":12846856852,"properties":{"amenity":"fountain"},"geometry":{"type":"Point","coordinates":[103.858002,1.2841399]}},{"type":"Feature","id":12846856853,"properties":{"amenity":"fountain"},"geometry":{"type":"Point","coordinates":[103.858053,1.2842613]}},{"type":"Feature","id":12846856854,"properties":{"amenity":"fountain"},"geometry":{"type":"Point","coordinates":[103.858111,1.2843629]}},{"type":"Feature","id":12846856855,"properties":{"amenity":"fountain"},"geometry":{"type":"Point","coordinates":[103.8581862,1.284484]}},{"type":"Feature","id":12846856856,"properties":{"amenity":"fountain"},"geometry":{"type":"Point","coordinates":[103.8582598,1.2845945]}},{"type":"Feature","id":12846856857,"properties":{"amenity":"fountain"},"geometry":{"type":"Point","coordinates":[103.8583401,1.284701]}},{"type":"Feature","id":13690144402,"properties":{"amenity":"vending_machine","brand":"Return Right","operator":"BCRS Ltd.","recycling:cans":"yes","recycling:pet_drink_bottles":"yes","recycling:plastic_bottles":"yes","source":"recycle.gov.sg; returnright.sg","vending":"bottle_return","website":"https://returnright.sg/"},"geometry":{"type":"Point","coordinates":[103.8592707,1.2836602]}},{"type":"Feature","id":13691366501,"properties":{"addr:housenumber":"02","addr:street":"Bayfront Avenue","brand":"Golden Goose","brand:wikidata":"Q28224724","name":"Golden Goose","shop":"shoes","website":"https://www.goldengoose.com/us/en/stores/singapore/295"},"geometry":{"type":"Point","coordinates":[103.8582181,1.2830651]}},{"type":"Feature","id":13383356849,"properties":{"information":"map","tourism":"information"},"geometry":{"type":"Point","coordinates":[103.8617897,1.2803892]}},{"type":"Feature","id":2845332236,"properties":{"access":"yes","amenity":"bicycle_parking","bicycle_parking":"stands","bike_ride":"no","capacity":"8","covered":"no","fee":"no","name":"Garden by the Bay","name:zh":"滨海湾花园"},"geometry":{"type":"Point","coordinates":[103.8627371,1.2857171]}},{"type":"Feature","id":6446571418,"properties":{"artwork_type":"installation","image":"https://images.mapillary.com/iZX4u75TvoteMiT9yCcs0g/thumb-2048.jpg","mapillary":"1132524037265098","name":"Moongate","tourism":"artwork","wheelchair":"yes"},"geometry":{"type":"Point","coordinates":[103.8622437,1.2856951]}},{"type":"Feature","id":6446571419,"properties":{"image":"https://images.mapillary.com/wTcHOso97n0CgL-ORUTNvg/thumb-2048.jpg","information":"board","mapillary":"305992697823135","name":"Moongate","tourism":"information"},"geometry":{"type":"Point","coordinates":[103.8622818,1.2856949]}},{"type":"Feature","id":6448634637,"properties":{"image":"https://images.mapillary.com/WGji0tHPJzPbMckq0DqrPQ/thumb-2048.jpg","mapillary":"1160863667769517","tourism":"viewpoint","wheelchair":"yes"},"geometry":{"type":"Point","coordinates":[103.8618208,1.2824175]}},{"type":"Feature","id":6448634639,"properties":{"amenity":"fountain","image":"https://images.mapillary.com/kbNR8gGH6nZD_jfcTmziwg/thumb-2048.jpg","mapillary":"155160056483591"},"geometry":{"type":"Point","coordinates":[103.8623936,1.2820487]}},{"type":"Feature","id":6449190574,"properties":{"check_date":"2025-12-17","image":"https://images.mapillary.com/UDA5NXhifoZBa5cMb3in3Q/thumb-2048.jpg","information":"map","mapillary":"134537508666816","tourism":"information"},"geometry":{"type":"Point","coordinates":[103.8619339,1.2825676]}},{"type":"Feature","id":6449211272,"properties":{"check_date":"2025-12-17","image":"https://images.mapillary.com/Zz8fTphGKS8aDC2pIAudug/thumb-2048.jpg","information":"map","leisure":"garden","mapillary":"112084397613043","name":"Malay Garden","name:zh":"马来族花园","tourism":"information"},"geometry":{"type":"Point","coordinates":[103.8629641,1.2824379]}},{"type":"Feature","id":6449211273,"properties":{"check_date":"2025-12-17","image":"https://images.mapillary.com/-5C7fGcHfQ4lkWs6fssqyA/thumb-2048.jpg","information":"map","leisure":"garden","mapillary":"224449745704667","name":"Malay Garden","name:zh":"马来族花园","tourism":"information"},"geometry":{"type":"Point","coordinates":[103.8632911,1.2825991]}},{"type":"Feature","id":9480668517,"properties":{"amenity":"cafe","name":"Mylo’s"},"geometry":{"type":"Point","coordinates":[103.8618995,1.2854723]}},{"type":"Feature","id":10115586085,"properties":{"access":"yes","amenity":"toilets","fee":"no"},"geometry":{"type":"Point","coordinates":[103.8624408,1.2849536]}},{"type":"Feature","id":10165757941,"properties":{"artwork_type":"sculpture","name":"Watching Clouds","tourism":"artwork"},"geometry":{"type":"Point","coordinates":[103.8627556,1.2854287]}},{"type":"Feature","id":10165757943,"properties":{"artwork_type":"sculpture","name":"Dragonfly Riders","tourism":"artwork"},"geometry":{"type":"Point","coordinates":[103.8623741,1.2818049]}},{"type":"Feature","id":10733019405,"properties":{"tourism":"viewpoint"},"geometry":{"type":"Point","coordinates":[103.86295,1.2820167]}},{"type":"Feature","id":12548530297,"properties":{"addr:housenumber":"18","addr:postcode":"018953","addr:street":"Marina Gardens Drive","addr:unit":"#01-21","amenity":"restaurant","check_date":"2025-05-24","indoor_seating":"yes","name":"Hopscotch","opening_hours":"12:00-14:30,17:00-22:00","outdoor_seating":"yes","phone":"+65 6539 9653"},"geometry":{"type":"Point","coordinates":[103.8615619,1.2813555]}},{"type":"Feature","id":13383335689,"properties":{"board_type":"wildlife","information":"board","name":"Can you spot... a flying dragon?","tourism":"information"},"geometry":{"type":"Point","coordinates":[103.8625894,1.2837273]}},{"type":"Feature","id":13383348081,"properties":{"amenity":"bench","backrest":"yes"},"geometry":{"type":"Point","coordinates":[103.8631323,1.2854388]}},{"type":"Feature","id":13383353789,"properties":{"amenity":"vending_machine","vending":"drinks"},"geometry":{"type":"Point","coordinates":[103.8629755,1.2824994]}},{"type":"Feature","id":13383353790,"properties":{"amenity":"fountain"},"geometry":{"type":"Point","coordinates":[103.8625218,1.283523]}},{"type":"Feature","id":13383356694,"properties":{"amenity":"bench","backrest":"yes"},"geometry":{"type":"Point","coordinates":[103.8625857,1.2838021]}},{"type":"Feature","id":13383356847,"properties":{"amenity":"bench","backrest":"yes"},"geometry":{"type":"Point","coordinates":[103.8631385,1.2854147]}},{"type":"Feature","id":13383356848,"properties":{"amenity":"bench","backrest":"yes"},"geometry":{"type":"Point","coordinates":[103.8627861,1.2852254]}},{"type":"Feature","id":13383359588,"properties":{"amenity":"bench","backrest":"yes"},"geometry":{"type":"Point","coordinates":[103.8625911,1.281818]}},{"type":"Feature","id":13383363247,"properties":{"information":"map","tourism":"information"},"geometry":{"type":"Point","coordinates":[103.8627692,1.282073]}},{"type":"Feature","id":13383364936,"properties":{"board_type":"plants","information":"board","name":"Can you spot... a free-floating plant?","tourism":"information"},"geometry":{"type":"Point","coordinates":[103.8624421,1.283009]}},{"type":"Feature","id":13383366987,"properties":{"amenity":"fountain"},"geometry":{"type":"Point","coordinates":[103.8625524,1.2837366]}},{"type":"Feature","id":13383367482,"properties":{"amenity":"fountain"},"geometry":{"type":"Point","coordinates":[103.8624713,1.2833176]}},{"type":"Feature","id":13383368127,"properties":{"amenity":"bench","backrest":"yes"},"geometry":{"type":"Point","coordinates":[103.8631247,1.2854619]}},{"type":"Feature","id":13383369889,"properties":{"amenity":"bench","backrest":"yes"},"geometry":{"type":"Point","coordinates":[103.8627916,1.2854523]}},{"type":"Feature","id":13383369890,"properties":{"board_type":"plants","information":"board","name":"Can you spot... a water Lily?","tourism":"information"},"geometry":{"type":"Point","coordinates":[103.8626587,1.2841348]}},{"type":"Feature","id":13383371161,"properties":{"board_type":"wildlife","information":"board","name":"Can you hear... the call of a frog?","tourism":"information"},"geometry":{"type":"Point","coordinates":[103.8626433,1.2820331]}},{"type":"Feature","id":13383375205,"properties":{"amenity":"bench","backrest":"yes"},"geometry":{"type":"Point","coordinates":[103.8623338,1.2813632]}},{"type":"Feature","id":244776330,"properties":{"highway":"service","lanes":"2","lit":"yes","oneway":"yes","surface":"asphalt","turn:lanes":"left|left"},"geometry":{"type":"LineString","coordinates":[[103.857305,1.2797786],[103.8574825,1.2796764],[103.8575464,1.2796396]]}},{"type":"Feature","id":244776332,"properties":{"highway":"service","lanes":"1","lit":"yes","oneway":"yes","parking:condition:right:vehicles":"motorcycle","parking:lane:right":"parallel","service":"parking_aisle","surface":"asphalt","turn:lanes":"through"},"geometry":{"type":"LineString","coordinates":[[103.8566863,1.280185],[103.8568396,1.2801023]]}},{"type":"Feature","id":244776333,"properties":{"highway":"service","lanes":"1","lit":"yes","oneway":"yes","surface":"asphalt","turn:lanes":"left"},"geometry":{"type":"LineString","coordinates":[[103.8574972,1.2795652],[103.8574418,1.2795956],[103.8573172,1.2796745],[103.8572766,1.2796826],[103.8572375,1.2796729]]}},{"type":"Feature","id":244776334,"properties":{"highway":"service","lanes":"1","lit":"yes","oneway":"yes","service":"parking_aisle","surface":"asphalt","turn:lanes":"right"},"geometry":{"type":"LineString","coordinates":[[103.8567841,1.2799158],[103.8567686,1.2799386],[103.8567637,1.2799654],[103.8567679,1.2800006],[103.8568396,1.2801023]]}},{"type":"Feature","id":244776681,"properties":{"highway":"service","lit":"yes"},"geometry":{"type":"LineString","coordinates":[[103.8577163,1.2795059],[103.8582541,1.27917],[103.8587303,1.2788724],[103.8587581,1.2789172],[103.8590759,1.2794187],[103.8591188,1.2795005],[103.8591215,1.2795487],[103.8590907,1.2795997],[103.8586991,1.2798303],[103.8586745,1.2798184],[103.8582541,1.27917]]}},{"type":"Feature","id":253945358,"properties":{"foot":"yes","highway":"primary","lanes":"4","lit":"yes","maxspeed":"60","name":"Sheares Avenue","name:zh":"薛尔思道","oneway":"yes","sidewalk:left":"separate","sidewalk:right":"no","smoothness":"excellent","surface":"asphalt"},"geometry":{"type":"LineString","coordinates":[[103.8583813,1.2780633],[103.8584744,1.2782104],[103.8588566,1.2787923],[103.8594446,1.2796877]]}},{"type":"Feature","id":429060638,"properties":{"foot":"yes","highway":"primary","lanes":"4","lit":"yes","maxspeed":"60","name":"Sheares Avenue","name:zh":"薛尔思道","oneway":"yes","surface":"asphalt"},"geometry":{"type":"LineString","coordinates":[[103.8594446,1.2796877],[103.8597788,1.2802299],[103.8601729,1.2809083]]}},{"type":"Feature","id":528254423,"properties":{"highway":"service","lanes":"1","lit":"yes","oneway":"yes","smoothness":"excellent","surface":"asphalt","turn:lanes":"right"},"geometry":{"type":"LineString","coordinates":[[103.8604097,1.2796327],[103.8605054,1.27964],[103.8605164,1.2796396],[103.8605327,1.2796355],[103.8605567,1.2796011],[103.8605608,1.2795853],[103.8605575,1.2795565]]}},{"type":"Feature","id":541140294,"properties":{"highway":"service","lanes":"1","lit":"yes","oneway":"yes","service":"parking_aisle","surface":"asphalt"},"geometry":{"type":"LineString","coordinates":[[103.8604213,1.279506],[103.8605361,1.2794411]]}},{"type":"Feature","id":635341763,"properties":{"highway":"service","lanes":"2","lit":"yes","maxspeed":"50","name":"Bayfront Link","oneway":"yes","smoothness":"excellent","surface":"asphalt"},"geometry":{"type":"LineString","coordinates":[[103.8585116,1.2808892],[103.858404,1.2809588]]}},{"type":"Feature","id":635341764,"properties":{"highway":"secondary","lanes":"3","lit":"yes","maxspeed":"50","name":"Bayfront Avenue","oneway":"yes","surface":"asphalt"},"geometry":{"type":"LineString","coordinates":[[103.8585788,1.2809853],[103.8585116,1.2808892]]}},{"type":"Feature","id":635341765,"properties":{"highway":"secondary","lanes":"3","lit":"yes","maxspeed":"50","name":"Bayfront Avenue","oneway":"yes","sidewalk:left":"separate","sidewalk:right":"no","smoothness":"good","surface":"concrete","turn:lanes":"left|left;through|through"},"geometry":{"type":"LineString","coordinates":[[103.857653,1.279553],[103.8573119,1.2789883],[103.8572079,1.2788165]]}},{"type":"Feature","id":635341766,"properties":{"highway":"secondary","lanes":"3","lit":"yes","maxspeed":"50","name":"Bayfront Avenue","oneway":"yes","sidewalk:left":"separate","sidewalk:right":"no","surface":"asphalt"},"geometry":{"type":"LineString","coordinates":[[103.8585116,1.2808892],[103.8584731,1.2808332],[103.8580311,1.2801208],[103.857717,1.2796503]]}},{"type":"Feature","id":635345722,"properties":{"highway":"secondary","lanes":"3","lit":"yes","maxspeed":"50","name":"Bayfront Avenue","oneway":"yes","surface":"asphalt"},"geometry":{"type":"LineString","coordinates":[[103.858404,1.2809588],[103.8584702,1.2810559]]}},{"type":"Feature","id":635345724,"properties":{"highway":"secondary","lanes":"3","lit":"yes","maxspeed":"50","name":"Bayfront Avenue","oneway":"yes","sidewalk:left":"separate","sidewalk:right":"no","surface":"asphalt"},"geometry":{"type":"LineString","coordinates":[[103.8574972,1.2795652],[103.8575464,1.2796396],[103.8579165,1.2802026]]}},{"type":"Feature","id":643800182,"properties":{"highway":"service","lanes":"2","lit":"yes","maxspeed":"50","name":"Bayfront Link","oneway":"yes","surface":"asphalt"},"geometry":{"type":"LineString","coordinates":[[103.8584702,1.2810559],[103.8585788,1.2809853]]}},{"type":"Feature","id":643880315,"properties":{"highway":"service","lanes":"1","lit":"yes","oneway":"yes","surface":"asphalt","turn:lanes":"through"},"geometry":{"type":"LineString","coordinates":[[103.8602551,1.2796],[103.8604097,1.2796327]]}},{"type":"Feature","id":643880316,"properties":{"highway":"service","lanes":"1","lit":"yes","oneway":"yes","service":"parking_aisle","surface":"asphalt","turn:lanes":"through;right"},"geometry":{"type":"LineString","coordinates":[[103.8602551,1.2796],[103.860325,1.2795605]]}},{"type":"Feature","id":643880317,"properties":{"highway":"service","lanes":"1","lit":"yes","oneway":"yes","service":"parking_aisle","surface":"asphalt","turn:lanes":"left;through;right"},"geometry":{"type":"LineString","coordinates":[[103.8600956,1.2796902],[103.8602076,1.2796268]]}},{"type":"Feature","id":665254704,"properties":{"highway":"service","lanes":"1","lit":"yes","oneway":"yes","service":"parking_aisle","surface":"asphalt","turn:lanes":"through;right"},"geometry":{"type":"LineString","coordinates":[[103.857305,1.2797786],[103.8572375,1.2796729],[103.8572141,1.2796373]]}},{"type":"Feature","id":665254705,"properties":{"highway":"service","lanes":"1","lit":"yes","oneway":"yes","parking:condition:right:vehicles":"motorcycle","parking:lane:right":"parallel","service":"parking_aisle","surface":"asphalt","turn:lanes":"through"},"geometry":{"type":"LineString","coordinates":[[103.8565695,1.2801169],[103.8566031,1.2801469],[103.8566234,1.2801668],[103.8566435,1.2801792],[103.8566639,1.2801886],[103.8566863,1.280185]]}},{"type":"Feature","id":666807611,"properties":{"highway":"service","lanes":"1","lit":"yes","oneway":"yes","parking:condition:left:vehicles":"motorcar,motorcycle","parking:condition:right:vehicles":"hgv","parking:lane:left":"perpendicular","parking:lane:right":"parallel","service":"parking_aisle","surface":"asphalt","turn:lanes":"through;right"},"geometry":{"type":"LineString","coordinates":[[103.8569878,1.2799979],[103.857305,1.2797786]]}},{"type":"Feature","id":666807613,"properties":{"highway":"service","lanes":"1","lit":"yes","oneway":"yes","parking:condition:right:vehicles":"hgv","parking:lane:right":"parallel","service":"parking_aisle","surface":"asphalt","turn:lanes":"through"},"geometry":{"type":"LineString","coordinates":[[103.8568396,1.2801023],[103.8569878,1.2799979]]}},{"type":"Feature","id":666807614,"properties":{"highway":"service","lanes":"1","lit":"yes","oneway":"yes","parking:condition:left:vehicles":"motorcar","parking:condition:right:vehicles":"motorcycle","parking:lane:left":"perpendicular","parking:lane:right":"parallel","service":"parking_aisle","surface":"asphalt","turn:lanes":"through"},"geometry":{"type":"LineString","coordinates":[[103.8565171,1.2800482],[103.8565695,1.2801169]]}},{"type":"Feature","id":724651785,"properties":{"covered":"no","highway":"service","lanes":"2","lanes:backward":"1","lanes:forward":"1","lit":"yes","oneway":"no","surface":"asphalt"},"geometry":{"type":"LineString","coordinates":[[103.8601558,1.2799148],[103.8601826,1.2800225],[103.8602419,1.2801267],[103.8603355,1.2802019],[103.8603771,1.2802782]]}},{"type":"Feature","id":724651786,"properties":{"covered":"no","highway":"service","lanes":"1","lit":"yes","oneway":"yes","surface":"asphalt","turn:lanes":"through"},"geometry":{"type":"LineString","coordinates":[[103.8603961,1.2805132],[103.8604519,1.2805312],[103.8605229,1.2805182],[103.8605795,1.2804762],[103.8605954,1.2804283],[103.8605755,1.2803823],[103.8605396,1.2803535],[103.860485,1.2803292],[103.8603771,1.2802782]]}},{"type":"Feature","id":750445381,"properties":{"highway":"service","lanes":"2","lanes:backward":"1","lanes:forward":"1","lit":"yes","service":"parking_aisle","surface":"asphalt","turn:lanes:backward":"through","turn:lanes:forward":"through"},"geometry":{"type":"LineString","coordinates":[[103.859957,1.2791317],[103.8601649,1.2794643]]}},{"type":"Feature","id":750445382,"properties":{"highway":"service","lanes":"2","lanes:backward":"1","lanes:forward":"1","lit":"yes","service":"parking_aisle","surface":"asphalt"},"geometry":{"type":"LineString","coordinates":[[103.8601649,1.2794643],[103.8602551,1.2796]]}},{"type":"Feature","id":750445383,"properties":{"highway":"service","lanes":"2","lanes:backward":"1","lanes:forward":"1","lit":"yes","service":"parking_aisle","smoothness":"excellent","surface":"asphalt"},"geometry":{"type":"LineString","coordinates":[[103.8603419,1.2793785],[103.8604213,1.279506]]}},{"type":"Feature","id":750445385,"properties":{"highway":"service","lanes":"1","lit":"yes","oneway":"yes","service":"parking_aisle","surface":"asphalt","turn:lanes":"right"},"geometry":{"type":"LineString","coordinates":[[103.8600631,1.2795946],[103.8600956,1.2796902]]}},{"type":"Feature","id":750445386,"properties":{"highway":"service","lanes":"1","lit":"yes","oneway":"yes","service":"parking_aisle","surface":"asphalt","turn:lanes":"through"},"geometry":{"type":"LineString","coordinates":[[103.8597462,1.2790682],[103.8600631,1.2795946]]}},{"type":"Feature","id":763513328,"properties":{"highway":"secondary","lanes":"3","lit":"yes","maxspeed":"50","name":"Bayfront Avenue","oneway":"yes","sidewalk:left":"separate","sidewalk:right":"no","surface":"asphalt"},"geometry":{"type":"LineString","coordinates":[[103.857717,1.2796503],[103.857653,1.279553]]}},{"type":"Feature","id":763514664,"properties":{"highway":"secondary","lanes":"3","lit":"yes","maxspeed":"50","name":"Bayfront Avenue","oneway":"yes","surface":"asphalt","turn:lanes":"left;through|through|through"},"geometry":{"type":"LineString","coordinates":[[103.8579165,1.2802026],[103.8583674,1.2809003],[103.858404,1.2809588]]}},{"type":"Feature","id":763519451,"properties":{"foot":"yes","highway":"primary","lanes":"4","lit":"yes","maxspeed":"60","name":"Sheares Avenue","name:zh":"薛尔思道","oneway":"yes","sidewalk:left":"separate","sidewalk:right":"no","surface":"asphalt"},"geometry":{"type":"LineString","coordinates":[[103.8596138,1.2795574],[103.8590518,1.2787027]]}},{"type":"Feature","id":765316015,"properties":{"highway":"service","lanes":"1","lit":"yes","oneway":"yes","service":"parking_aisle","surface":"asphalt","turn:lanes":"through;right"},"geometry":{"type":"LineString","coordinates":[[103.8602076,1.2796268],[103.8602551,1.2796]]}},{"type":"Feature","id":765316016,"properties":{"highway":"service","lanes":"1","lit":"yes","oneway":"yes","service":"parking_aisle","surface":"asphalt","turn:lanes":"right"},"geometry":{"type":"LineString","coordinates":[[103.860325,1.2795605],[103.8604213,1.279506]]}},{"type":"Feature","id":765316017,"properties":{"highway":"service","lanes":"1","lit":"yes","oneway":"yes","smoothness":"excellent","surface":"asphalt","turn:lanes":"through"},"geometry":{"type":"LineString","coordinates":[[103.8605575,1.2795565],[103.8605361,1.2794411]]}},{"type":"Feature","id":765316018,"properties":{"covered":"no","highway":"service","lanes":"2","lanes:backward":"1","lanes:forward":"1","lit":"yes","oneway":"no","surface":"asphalt","turn:lanes:backward":"left","turn:lanes:forward":"through"},"geometry":{"type":"LineString","coordinates":[[103.8600956,1.2796902],[103.8601028,1.279759],[103.8601374,1.2798382],[103.8601558,1.2799148]]}},{"type":"Feature","id":765316019,"properties":{"covered":"no","highway":"service","horse":"no","lanes":"2","lanes:backward":"1","lanes:forward":"1","lit":"yes","oneway":"no","surface":"asphalt"},"geometry":{"type":"LineString","coordinates":[[103.8603961,1.2805132],[103.8604911,1.2807398]]}},{"type":"Feature","id":765316020,"properties":{"covered":"no","highway":"service","lanes":"2","lanes:backward":"1","lanes:forward":"1","lit":"yes","oneway":"no","surface":"asphalt","turn:lanes:backward":"through","turn:lanes:forward":"through;right"},"geometry":{"type":"LineString","coordinates":[[103.8603771,1.2802782],[103.8603799,1.2803841],[103.8603961,1.2805132]]}},{"type":"Feature","id":913028002,"properties":{"natural":"water","water":"pond"},"geometry":{"type":"LineString","coordinates":[[103.860611,1.2803098],[103.8606557,1.2802944],[103.860628,1.2802543],[103.8606203,1.2802358],[103.8606172,1.2802158],[103.8606237,1.2801469],[103.860621,1.2801373],[103.8606141,1.2801326],[103.8606049,1.2801319],[103.8605952,1.2801344],[103.8605681,1.2801511],[103.8605633,1.2801527],[103.8605584,1.2801521],[103.8605551,1.2801494],[103.860534,1.2801281],[103.8605309,1.2801238],[103.8605287,1.2801196],[103.8605274,1.2801147],[103.8605274,1.2801098],[103.8605278,1.2801031],[103.8605271,1.2800995],[103.860525,1.2800968],[103.8605216,1.2800943],[103.860517,1.2800932],[103.8605128,1.2800934],[103.8605089,1.2800942],[103.8605063,1.2800942],[103.860504,1.2800934],[103.8605024,1.2800918],[103.8605013,1.2800899],[103.8605011,1.2800874],[103.8605017,1.280085],[103.8605043,1.2800812],[103.8605059,1.2800782],[103.8605069,1.2800749],[103.8605065,1.2800709],[103.8605049,1.280068],[103.8605027,1.2800655],[103.8604965,1.2800624],[103.8604919,1.2800618],[103.8604868,1.2800621],[103.8604688,1.2800651],[103.8604627,1.2800665],[103.8604566,1.2800665],[103.8604534,1.2800639],[103.8604531,1.2800601],[103.8604537,1.2800563],[103.8604542,1.2800505],[103.8604537,1.2800446],[103.8604516,1.2800408],[103.8604481,1.2800379],[103.8604426,1.2800365],[103.8604184,1.2800342],[103.8604097,1.2800337],[103.8604031,1.2800327],[103.8603996,1.2800296],[103.8603975,1.280027],[103.8603958,1.2800237],[103.8603926,1.2799848],[103.8604108,1.2799304],[103.8604422,1.2799145],[103.8604847,1.279922],[103.8605024,1.2799454],[103.8605218,1.2799512],[103.8605329,1.2799729],[103.8605603,1.2799751],[103.860563,1.2799923],[103.8605838,1.2799932],[103.8605886,1.2800304],[103.8605926,1.2800357],[103.8605997,1.2800383],[103.8606072,1.2800388],[103.8606178,1.2800379],[103.8606258,1.2800348],[103.8606302,1.2800299],[103.860632,1.2800206],[103.860628,1.2800091],[103.8606032,1.2799737],[103.8605829,1.2799751],[103.8605776,1.2799353],[103.8605997,1.2799238],[103.8605298,1.2798495],[103.8605099,1.279857],[103.8605086,1.2798446],[103.8604444,1.279799],[103.8603803,1.2797937],[103.8603714,1.2797689],[103.8603873,1.2797749],[103.8603957,1.2797737],[103.8603976,1.2797679],[103.8603959,1.2797617],[103.8603882,1.2797579],[103.8603449,1.2797433],[103.8603444,1.2797155],[103.8603289,1.2797159],[103.860325,1.2797407],[103.8603219,1.2797455],[103.8603166,1.2797486],[103.8603099,1.2797508],[103.8603028,1.2797508],[103.8602953,1.2797473],[103.86029,1.2797415],[103.8602825,1.2797309],[103.8602604,1.2797345],[103.8602573,1.2797256],[103.8602467,1.2797212],[103.8602537,1.2796982],[103.8602161,1.2796949],[103.8601875,1.2796388],[103.8601654,1.2796494],[103.8601909,1.2796994],[103.86019,1.2797354],[103.8602011,1.279738],[103.8601998,1.2797548],[103.8602188,1.2797588],[103.8602201,1.2797822],[103.8602338,1.2797946],[103.8602312,1.2798203],[103.8602467,1.279826],[103.8602471,1.2798406],[103.8602613,1.2798464],[103.8602657,1.2798636],[103.8602829,1.2798707],[103.8603254,1.279945],[103.8603581,1.2800016],[103.8603657,1.2800401],[103.8603984,1.2800737],[103.8604289,1.280117],[103.86049,1.2801237],[103.8605178,1.2801741],[103.8605493,1.2801838],[103.8605501,1.2802002],[103.8605612,1.2802188],[103.8605422,1.2802236],[103.8605479,1.2802404],[103.8605665,1.2802462],[103.860611,1.2803098]]}},{"type":"Feature","id":1484796136,"properties":{"highway":"service","lit":"yes","oneway":"yes"},"geometry":{"type":"LineString","coordinates":[[103.8577163,1.2795059],[103.8576986,1.2795191],[103.8576856,1.2795287],[103.857653,1.279553]]}},{"type":"Feature","id":39961207,"properties":{"foot":"yes","highway":"primary","lanes":"4","lit":"yes","maxspeed":"60","name":"Sheares Avenue","name:zh":"薛尔思道","note":"Position correct at 26 Oct 2012","oneway":"yes","smoothness":"excellent","source":"GPS","surface":"asphalt","toll":"yes"},"geometry":{"type":"LineString","coordinates":[[103.8615643,1.2851283],[103.8615002,1.2843366],[103.8614415,1.2837877],[103.8613618,1.2834101],[103.8612488,1.2829781]]}},{"type":"Feature","id":172307469,"properties":{"highway":"service","lanes":"2","lit":"yes","maxspeed":"50","name":"Bayfront Link","oneway":"yes","surface":"asphalt","turn:lanes":"through|right"},"geometry":{"type":"LineString","coordinates":[[103.858404,1.2809588],[103.8583302,1.2810109],[103.8576997,1.2814301]]}},{"type":"Feature","id":465063306,"properties":{"highway":"service","lanes":"3","lit":"yes","maxspeed":"50","name":"Bayfront Link","oneway":"yes","surface":"asphalt","turn:lanes":"left|left;right|right"},"geometry":{"type":"LineString","coordinates":[[103.8578528,1.2814527],[103.8583926,1.2811051],[103.8584702,1.2810559]]}},{"type":"Feature","id":635392742,"properties":{"highway":"secondary","lanes":"3","lit":"yes","maxspeed":"50","name":"Bayfront Avenue","oneway":"yes","surface":"asphalt"},"geometry":{"type":"LineString","coordinates":[[103.8584702,1.2810559],[103.8585191,1.281124],[103.8587798,1.2815196]]}},{"type":"Feature","id":639682610,"properties":{"foot":"yes","highway":"primary","lanes":"4","lit":"yes","maxspeed":"60","name":"Sheares Avenue","name:zh":"薛尔思道","note":"Position correct at 26 Oct 2012","oneway":"yes","sidewalk:left":"separate","sidewalk:right":"no","source":"GPS","surface":"asphalt"},"geometry":{"type":"LineString","coordinates":[[103.8606819,1.2814874],[103.8603566,1.2808222],[103.8599633,1.2801285],[103.8596138,1.2795574]]}},{"type":"Feature","id":692147571,"properties":{"name":"Marina Reservoir","name:en":"Marina Reservoir","name:ms":"Kolam Air Marina","name:ta":"மெரீனா நீர்த்தேக்கம்","name:th":"อ่างเก็บน้ำมารีน่า","name:zh":"濱海蓄水池","waterway":"river","wikidata":"Q6763896","wikipedia":"en:Marina Reservoir"},"geometry":{"type":"LineString","coordinates":[[103.8543466,1.2880626],[103.8577363,1.2878433],[103.8598312,1.2877078],[103.8642036,1.2870001],[103.8672734,1.2864108]]}},{"type":"Feature","id":724651784,"properties":{"height":"16","leisure":"garden","name":"Floral Fantasy","name:zh":"奇幻花园"},"geometry":{"type":"LineString","coordinates":[[103.8610547,1.2815525],[103.861111,1.2815176],[103.8611211,1.2815559],[103.8611278,1.2816008],[103.8611197,1.2816356],[103.8611271,1.2816484],[103.8611446,1.2816423],[103.8611479,1.2816504],[103.8611942,1.2816356],[103.8612324,1.2817295],[103.861341,1.2816846],[103.8613933,1.2815874],[103.8614275,1.2815807],[103.8614651,1.2815538],[103.8614825,1.281523],[103.8614832,1.2814855],[103.8614631,1.2814419],[103.8614295,1.2814191],[103.8614088,1.2814104],[103.8613813,1.2814097],[103.8613866,1.2814473],[103.8613665,1.2814868],[103.8613444,1.2814794],[103.8613068,1.2815431],[103.8612968,1.2815505],[103.8612934,1.2815378],[103.8613041,1.2815176],[103.8612646,1.2814962],[103.8612274,1.2815016],[103.8611915,1.2814882],[103.8611694,1.2814607],[103.861161,1.2814127],[103.8611714,1.2813842],[103.8611932,1.2813574],[103.8612008,1.2813245],[103.8611962,1.2812897],[103.8611814,1.2812636],[103.8611345,1.2812233],[103.8610279,1.2811751],[103.8610091,1.2811751],[103.8609917,1.2811811],[103.8609823,1.2811999],[103.860983,1.281218],[103.8610017,1.2812576],[103.8610138,1.2813152],[103.8610118,1.2813728],[103.8610011,1.2814285],[103.8610031,1.2814701],[103.8610239,1.2815217],[103.8610547,1.2815525]]}},{"type":"Feature","id":763513329,"properties":{"highway":"secondary","lanes":"4","lit":"yes","maxspeed":"50","name":"Bayfront Avenue","oneway":"yes","smoothness":"excellent","surface":"asphalt","turn:lanes":"through|through|through|right"},"geometry":{"type":"LineString","coordinates":[[103.8588872,1.2814466],[103.8586299,1.2810611],[103.8585788,1.2809853]]}},{"type":"Feature","id":763521362,"properties":{"foot":"yes","highway":"primary","lanes":"4","lit":"yes","maxspeed":"60","name":"Sheares Avenue","name:zh":"薛尔思道","oneway":"yes","surface":"asphalt","turn:lanes":"left;through|through|through|through"},"geometry":{"type":"LineString","coordinates":[[103.8601729,1.2809083],[103.8605211,1.2815796],[103.8605368,1.2816189]]}},{"type":"Feature","id":767920631,"properties":{"bicycle":"yes","highway":"pedestrian","lit":"yes","name":"Olympic Walk","smoothness":"good","surface":"paving_stones"},"geometry":{"type":"LineString","coordinates":[[103.8558922,1.2801475],[103.8570913,1.2820318]]}},{"type":"Feature","id":922500296,"properties":{"highway":"service","lit":"yes","surface":"asphalt"},"geometry":{"type":"LineString","coordinates":[[103.8609907,1.2817037],[103.8608352,1.2814038],[103.8607773,1.2812921],[103.8604911,1.2807398]]}},{"type":"Feature","id":958873943,"properties":{"area":"yes","highway":"pedestrian","lit":"yes","name":"Bayfront Event Plaza","smoothness":"good","surface":"asphalt"},"geometry":{"type":"LineString","coordinates":[[103.8573276,1.2816571],[103.8583302,1.2810109],[103.858293,1.2809523],[103.8575136,1.2797253],[103.8564893,1.2803778],[103.8573276,1.2816571]]}},{"type":"Feature","id":160588642,"properties":{"highway":"secondary","lanes":"4","lit":"yes","maxspeed":"50","name":"Bayfront Avenue","oneway":"yes","surface":"asphalt","toll":"yes","turn:lanes":"left|through|through|through"},"geometry":{"type":"LineString","coordinates":[[103.8608914,1.2855271],[103.8608828,1.2854291]]}},{"type":"Feature","id":162525974,"properties":{"bicycle":"yes","highway":"pedestrian","lit":"yes","name":"Olympic Walk","surface":"wood"},"geometry":{"type":"LineString","coordinates":[[103.8570913,1.2820318],[103.8570407,1.2820758],[103.8570123,1.2821327],[103.8570028,1.2821942],[103.8570107,1.2822621],[103.8570375,1.2823347],[103.8572744,1.2825952],[103.8576281,1.2828791],[103.8577005,1.2829788],[103.8581471,1.2835936],[103.8581749,1.2837759],[103.8582284,1.2841259],[103.8584615,1.2844143],[103.8586446,1.28458],[103.8588296,1.2848081],[103.8588707,1.2849375]]}},{"type":"Feature","id":172015629,"properties":{"area":"yes","highway":"pedestrian","lit":"yes","name":"Event Plaza","surface":"wood"},"geometry":{"type":"LineString","coordinates":[[103.858762,1.2843782],[103.8586446,1.28458],[103.8586279,1.2846088],[103.8584375,1.2844506],[103.8583667,1.2843567],[103.8582945,1.2842405],[103.8581912,1.2841502],[103.8581371,1.2839867],[103.8581283,1.2837999],[103.8581749,1.2837759],[103.858315,1.283704],[103.858762,1.2843782]]}},{"type":"Feature","id":172307473,"properties":{"highway":"residential","lanes":"2","lit":"yes","maxspeed":"50","name":"Sheares Link","oneway":"yes","surface":"asphalt","turn:lanes":"left|right"},"geometry":{"type":"LineString","coordinates":[[103.8598361,1.2820616],[103.859486,1.2822751],[103.8594737,1.2822824],[103.859437,1.2823044]]}},{"type":"Feature","id":172307474,"properties":{"highway":"service","lit":"yes","maxheight:signed":"no","oneway":"yes","surface":"paving_stones","tunnel":"building_passage"},"geometry":{"type":"LineString","coordinates":[[103.8587143,1.2818108],[103.8587121,1.2818508],[103.8589342,1.282213],[103.8590248,1.2823004],[103.8590992,1.282327]]}},{"type":"Feature","id":172307475,"properties":{"highway":"service","lanes":"1","lit":"yes","maxheight:signed":"no","oneway":"yes","tunnel":"building_passage","turn:lanes":"right"},"geometry":{"type":"LineString","coordinates":[[103.8600299,1.2840278],[103.860071,1.284084],[103.8600978,1.2841062],[103.8601313,1.2841112],[103.8601574,1.2841084],[103.8601816,1.2840986],[103.8602079,1.2840875],[103.8602272,1.2840798]]}},{"type":"Feature","id":172307477,"properties":{"highway":"service","lit":"yes","oneway":"yes","surface":"asphalt"},"geometry":{"type":"LineString","coordinates":[[103.8576997,1.2814301],[103.8576615,1.2815193],[103.8576576,1.2815499],[103.8576634,1.2815813]]}},{"type":"Feature","id":172307478,"properties":{"highway":"service","lit":"yes","surface":"asphalt"},"geometry":{"type":"LineString","coordinates":[[103.8574317,1.2817331],[103.8574685,1.2817723]]}},{"type":"Feature","id":172307479,"properties":{"highway":"service","lit":"yes","oneway":"yes","surface":"paving_stones"},"geometry":{"type":"LineString","coordinates":[[103.8587537,1.2816973],[103.8587669,1.2817187],[103.8587945,1.2817635],[103.8590387,1.2821597],[103.8591093,1.2823036],[103.8591259,1.2823373]]}},{"type":"Feature","id":172307480,"properties":{"highway":"service","lit":"yes","maxheight:signed":"no","oneway":"yes"},"geometry":{"type":"LineString","coordinates":[[103.85962,1.2831586],[103.859661,1.2832187],[103.8597143,1.2833101],[103.85996,1.2837054],[103.8601612,1.2840292],[103.8602079,1.2840875]]}},{"type":"Feature","id":172307481,"properties":{"access":"permissive","amenity":"fountain","artist_name":"Ned Kahn","artwork_type":"architecture","covered":"no","image":"https://images.mapillary.com/KsiWGm5fmWrDLX_hYKf2ew/thumb-2048.jpg","mapillary":"467148234553050","name":"Rain Oculus","name:th":"เรนออคคูรัส","name:zh":"雨眼","natural":"water","url":"https://www.youtube.com/watch?v=3RcU2lXomYM","waterway":"waterfall","website":"https://nedkahn.com/portfolio/rain-oculus/","wheelchair":"yes"},"geometry":{"type":"LineString","coordinates":[[103.8586904,1.2840248],[103.8586986,1.2840251],[103.8587069,1.2840248],[103.8587152,1.2840237],[103.8587234,1.284022],[103.8587314,1.2840196],[103.8587392,1.2840165],[103.8587467,1.2840128],[103.8587538,1.2840085],[103.8587606,1.2840036],[103.8587669,1.2839981],[103.8587728,1.2839922],[103.8587782,1.2839857],[103.8587829,1.2839789],[103.8587871,1.2839717],[103.8587907,1.2839641],[103.8587937,1.2839563],[103.858796,1.2839482],[103.8587976,1.28394],[103.8587985,1.2839317],[103.8587987,1.2839234],[103.8587982,1.283915],[103.8587971,1.2839068],[103.8587952,1.2838986],[103.8587927,1.2838906],[103.8587895,1.2838829],[103.8587857,1.2838755],[103.8587812,1.2838684],[103.8587762,1.2838617],[103.8587707,1.2838554],[103.8587646,1.2838497],[103.8587581,1.2838444],[103.8587512,1.2838397],[103.8587439,1.2838356],[103.8587363,1.2838321],[103.8587285,1.2838293],[103.8587204,1.2838271],[103.8587122,1.2838257],[103.8587038,1.2838249],[103.8586955,1.2838248],[103.8586873,1.2838253],[103.8586792,1.2838266],[103.8586712,1.2838285],[103.8586634,1.2838311],[103.8586558,1.2838342],[103.8586486,1.283838],[103.8586416,1.2838424],[103.858635,1.2838473],[103.8586289,1.2838528],[103.8586232,1.2838587],[103.8586181,1.2838651],[103.8586134,1.2838719],[103.8586094,1.283879],[103.8586059,1.2838864],[103.8586031,1.2838941],[103.8586009,1.2839021],[103.8585993,1.2839101],[103.8585985,1.2839183],[103.8585983,1.2839265],[103.8585987,1.2839347],[103.8585998,1.2839428],[103.8586016,1.2839508],[103.8586041,1.2839586],[103.8586072,1.2839662],[103.8586108,1.2839736],[103.8586151,1.2839806],[103.85862,1.2839872],[103.8586253,1.2839934],[103.8586312,1.2839992],[103.8586375,1.2840044],[103.8586442,1.2840092],[103.8586513,1.2840133],[103.8586587,1.2840169],[103.8586663,1.2840198],[103.8586742,1.2840221],[103.8586822,1.2840238],[103.8586904,1.2840248]]}},{"type":"Feature","id":172307482,"properties":{"highway":"service","lanes":"1","lit":"yes","oneway":"yes","turn:lanes":"through"},"geometry":{"type":"LineString","coordinates":[[103.8608051,1.2849576],[103.8608696,1.2849436],[103.8609484,1.2849215],[103.860961,1.284936],[103.8609742,1.2849806],[103.8609885,1.2850321],[103.8609959,1.2850673],[103.8610085,1.2851213],[103.861033,1.2852497],[103.8610678,1.2856255]]}},{"type":"Feature","id":172892316,"properties":{"area":"yes","highway":"pedestrian","lit":"yes","smoothness":"excellent","surface":"asphalt"},"geometry":{"type":"LineString","coordinates":[[103.8605007,1.2877761],[103.860489,1.2877476],[103.8604909,1.2877166],[103.8605032,1.2876907],[103.8605207,1.2876761],[103.8605386,1.2876776],[103.8605474,1.2876983],[103.8605495,1.2877106],[103.8605518,1.2877365],[103.8605493,1.2877466],[103.8605424,1.2877731],[103.8605346,1.2877905],[103.8605183,1.2877933],[103.8605007,1.2877761]]}},{"type":"Feature","id":172892317,"properties":{"area":"yes","highway":"pedestrian","lit":"yes","smoothness":"excellent","surface":"asphalt"},"geometry":{"type":"LineString","coordinates":[[103.8603261,1.2866752],[103.8603037,1.2866541],[103.8602924,1.2866252],[103.8602928,1.2865965],[103.8603026,1.2865759],[103.8603195,1.2865698],[103.8603362,1.286585],[103.8603431,1.2865953],[103.8603532,1.2866124],[103.860358,1.2866281],[103.8603628,1.286655],[103.860363,1.2866741],[103.8603493,1.2866834],[103.8603261,1.2866752]]}},{"type":"Feature","id":172892318,"properties":{"area":"yes","highway":"pedestrian","lit":"yes","smoothness":"excellent","surface":"asphalt"},"geometry":{"type":"LineString","coordinates":[[103.8604827,1.2872168],[103.8604646,1.2871918],[103.8604591,1.2871613],[103.860465,1.2871332],[103.8604785,1.2871149],[103.8604962,1.2871121],[103.8605097,1.2871301],[103.8605146,1.2871416],[103.8605212,1.2871603],[103.8605229,1.2871766],[103.8605226,1.287204],[103.8605191,1.2872227],[103.8605038,1.2872293],[103.8604827,1.2872168]]}},{"type":"Feature","id":395113911,"properties":{"leaf_type":"broadleaved","natural":"tree_row"},"geometry":{"type":"LineString","coordinates":[[103.8576611,1.2828774],[103.8573531,1.2825554],[103.857119,1.2823514]]}},{"type":"Feature","id":395113916,"properties":{"leaf_type":"needleleaved","natural":"tree_row"},"geometry":{"type":"LineString","coordinates":[[103.8583413,1.2838993],[103.8582753,1.2837753],[103.8582393,1.2836534],[103.8579512,1.2832154],[103.8577692,1.2829994]]}},{"type":"Feature","id":395551838,"properties":{"highway":"pedestrian","lit":"yes","name":"Bayfront Link","surface":"asphalt"},"geometry":{"type":"LineString","coordinates":[[103.8573716,1.28173],[103.8574128,1.2817047]]}},{"type":"Feature","id":465063303,"properties":{"highway":"residential","lanes":"2","lit":"yes","maxspeed":"50","name":"Sheares Link","oneway":"yes","surface":"asphalt"},"geometry":{"type":"LineString","coordinates":[[103.8595121,1.282417],[103.8595448,1.2823964],[103.8597929,1.2822396]]}},{"type":"Feature","id":477796389,"properties":{"foot":"yes","highway":"primary","lanes":"4","lit":"yes","maxheight":"4.5","maxspeed":"60","name":"Sheares Avenue","name:zh":"薛尔思道","note":"Position correct at 26 Oct 2012","oneway":"yes","smoothness":"excellent","source":"GPS","surface":"asphalt"},"geometry":{"type":"LineString","coordinates":[[103.8612488,1.2829781],[103.8611089,1.2825397]]}},{"type":"Feature","id":477796390,"properties":{"foot":"yes","highway":"primary","lanes":"5","lit":"yes","maxspeed":"60","name":"Sheares Avenue","name:zh":"薛尔思道","note":"Position correct at 26 Oct 2012","oneway":"yes","parking:both":"no","smoothness":"excellent","source":"GPS","surface":"asphalt","turn:lanes":"through|through|through|through|right"},"geometry":{"type":"LineString","coordinates":[[103.8611089,1.2825397],[103.8610113,1.2822281],[103.8609407,1.2820289],[103.8608058,1.2817229]]}},{"type":"Feature","id":477796391,"properties":{"foot":"yes","highway":"primary","lanes":"4","lit":"yes","maxspeed":"60","name":"Sheares Avenue","name:zh":"薛尔思道","oneway":"yes","smoothness":"excellent","surface":"asphalt"},"geometry":{"type":"LineString","coordinates":[[103.8610688,1.2830525],[103.8611895,1.2834546],[103.8612694,1.2838251],[103.8613385,1.2843618],[103.8614244,1.2851322]]}},{"type":"Feature","id":477796392,"properties":{"foot":"yes","highway":"primary","lanes":"4","lit":"yes","maxheight":"4.5","maxspeed":"60","name":"Sheares Avenue","name:zh":"薛尔思道","oneway":"yes","sidewalk:left":"yes","sidewalk:right":"no","surface":"asphalt"},"geometry":{"type":"LineString","coordinates":[[103.8609166,1.282575],[103.8610688,1.2830525]]}},{"type":"Feature","id":479284867,"properties":{"highway":"secondary","lanes":"3","lit":"yes","maxspeed":"50","name":"Bayfront Avenue","oneway":"yes","surface":"asphalt"},"geometry":{"type":"LineString","coordinates":[[103.8608051,1.2849576],[103.860803,1.2849482],[103.8607807,1.2848685],[103.860715,1.2846556],[103.8606539,1.2844605],[103.8605874,1.2842848],[103.8604935,1.2840732],[103.8604043,1.2839098]]}},{"type":"Feature","id":528509257,"properties":{"bicycle":"yes","highway":"pedestrian","lit":"yes","noname":"yes","surface":"paving_stones"},"geometry":{"type":"LineString","coordinates":[[103.8592609,1.2855259],[103.8591217,1.2855661],[103.8589933,1.2856911],[103.8589166,1.28583],[103.8588607,1.285938],[103.8588294,1.286102],[103.8588358,1.2862327],[103.8588598,1.28633],[103.8589496,1.2864628],[103.8589958,1.2865179],[103.8590633,1.286521],[103.8592728,1.2865943],[103.8594224,1.2866259],[103.859548,1.2866117],[103.8597422,1.2865514],[103.8598838,1.2865032],[103.8601306,1.2865213]]}},{"type":"Feature","id":528509258,"properties":{"bicycle":"yes","highway":"pedestrian","lit":"yes","name":"Olympic Walk","smoothness":"good","surface":"paving_stones"},"geometry":{"type":"LineString","coordinates":[[103.8570913,1.2820318],[103.8571997,1.2821994],[103.857311,1.2823643],[103.8576449,1.2827116],[103.8578031,1.2828961],[103.8579816,1.2831044],[103.8583477,1.2836029],[103.8587404,1.2842965],[103.8588713,1.2845384],[103.8589634,1.2847372],[103.8592059,1.2852685],[103.8592609,1.2855259],[103.8592394,1.2857056],[103.8592971,1.2858316],[103.8595654,1.2860931],[103.8596772,1.2861762],[103.8597839,1.2862392],[103.859859,1.286274]]}},{"type":"Feature","id":531336842,"properties":{"bicycle":"yes","highway":"pedestrian","lit":"yes","name":"Bayfront Avenue","surface":"sett"},"geometry":{"type":"LineString","coordinates":[[103.859859,1.286274],[103.8599087,1.2863129],[103.8599785,1.2863612],[103.8600583,1.2863733],[103.8601983,1.2863384],[103.860337,1.2862944],[103.8605341,1.2862003]]}},{"type":"Feature","id":541141636,"properties":{"highway":"service","lanes":"1","lit":"yes","oneway":"yes"},"geometry":{"type":"LineString","coordinates":[[103.8597929,1.2822396],[103.8598212,1.2822774],[103.8598739,1.282348],[103.8598993,1.2823697],[103.8599165,1.2823799],[103.8599395,1.2823814],[103.8599676,1.2823787],[103.8599895,1.2823676],[103.8602809,1.2821331],[103.8603083,1.2820827],[103.8603136,1.2820482],[103.8603039,1.2820225],[103.8602944,1.281995],[103.8602742,1.2819596],[103.8602549,1.2819302]]}},{"type":"Feature","id":542186306,"properties":{"highway":"service","lanes":"1","lit":"yes","oneway":"yes","turn:lanes":"left"},"geometry":{"type":"LineString","coordinates":[[103.8602272,1.2840798],[103.8602833,1.2840672],[103.8603185,1.2840863],[103.860365,1.2841296]]}},{"type":"Feature","id":542186307,"properties":{"highway":"service","lanes":"1","lit":"yes","oneway":"yes","turn:lanes":"through;right"},"geometry":{"type":"LineString","coordinates":[[103.8596867,1.2829905],[103.8596659,1.2830623],[103.859623,1.2831239]]}},{"type":"Feature","id":542186308,"properties":{"highway":"service","lit":"yes","oneway":"yes","surface":"paving_stones"},"geometry":{"type":"LineString","coordinates":[[103.8590992,1.282327],[103.8591259,1.2823373],[103.8591756,1.2823508],[103.8592201,1.2823496],[103.8592829,1.2823309]]}},{"type":"Feature","id":542186309,"properties":{"highway":"service","lit":"yes","oneway":"yes","surface":"paving_stones"},"geometry":{"type":"LineString","coordinates":[[103.8587798,1.2815196],[103.8587675,1.2816284],[103.8587617,1.2816651],[103.8587537,1.2816973],[103.8587143,1.2818108]]}},{"type":"Feature","id":542286536,"properties":{"highway":"service","lanes":"1","lit":"yes","oneway":"yes"},"geometry":{"type":"LineString","coordinates":[[103.8607372,1.2820672],[103.8606441,1.2822742],[103.8606388,1.2822885],[103.860609,1.2823696],[103.8606025,1.2823999],[103.8606035,1.2824283],[103.8606345,1.2824705]]}},{"type":"Feature","id":542286537,"properties":{"highway":"service","lanes":"2","lanes:backward":"1","lanes:forward":"1","lit":"yes"},"geometry":{"type":"LineString","coordinates":[[103.8606345,1.2824705],[103.8606463,1.2824991],[103.8607174,1.2825936],[103.8607999,1.2827042],[103.860818,1.2827485],[103.8608341,1.2828336],[103.8608877,1.2832399]]}},{"type":"Feature","id":542286538,"properties":{"highway":"service","lanes":"1","lit":"yes","oneway":"yes","turn:lanes":"left"},"geometry":{"type":"LineString","coordinates":[[103.8606345,1.2824705],[103.8606565,1.282428],[103.860665,1.2823907],[103.8606726,1.2823679],[103.8606836,1.2823488],[103.8606901,1.2823449],[103.8607013,1.2823382],[103.8608206,1.2822815]]}},{"type":"Feature","id":576467844,"properties":{"foot":"no","highway":"residential","lanes":"1","lit":"yes","maxspeed":"50","name":"Sheares Link","oneway":"yes","smoothness":"excellent","surface":"asphalt"},"geometry":{"type":"LineString","coordinates":[[103.8608058,1.2817229],[103.8607128,1.2816611],[103.8606792,1.281641],[103.860649,1.2816243],[103.8606121,1.2816129],[103.8605786,1.2816115],[103.8605538,1.2816142],[103.8605368,1.2816189]]}},{"type":"Feature","id":620580643,"properties":{"amenity":"fountain","image":"https://images.mapillary.com/OKDOJwKaWLMddyNygtLvGg/thumb-2048.jpg","mapillary":"284262236744414","natural":"water"},"geometry":{"type":"LineString","coordinates":[[103.8596995,1.2862399],[103.8598443,1.2862938],[103.8597488,1.2864494],[103.859738,1.2863431],[103.8596995,1.2862399]]}},{"type":"Feature","id":620580644,"properties":{"leaf_type":"broadleaved","natural":"tree_row"},"geometry":{"type":"LineString","coordinates":[[103.8602286,1.2863739],[103.8600145,1.2864401]]}},{"type":"Feature","id":620580645,"properties":{"leaf_type":"broadleaved","natural":"tree_row"},"geometry":{"type":"LineString","coordinates":[[103.8602648,1.2864255],[103.8600507,1.2864917]]}},{"type":"Feature","id":620580646,"properties":{"leaf_type":"broadleaved","natural":"tree_row"},"geometry":{"type":"LineString","coordinates":[[103.8605652,1.2863331],[103.8603911,1.2863854]]}},{"type":"Feature","id":620580647,"properties":{"leaf_type":"broadleaved","natural":"tree_row"},"geometry":{"type":"LineString","coordinates":[[103.8605776,1.2862761],[103.8603634,1.2863423]]}},{"type":"Feature","id":620580648,"properties":{"denotation":"avenue","description":"palms","leaf_type":"broadleaved","natural":"tree_row"},"geometry":{"type":"LineString","coordinates":[[103.8612893,1.2861098],[103.8610243,1.2861898]]}},{"type":"Feature","id":620580649,"properties":{"leaf_type":"broadleaved","natural":"tree_row"},"geometry":{"type":"LineString","coordinates":[[103.8612877,1.2860512],[103.8610135,1.2861313]]}},{"type":"Feature","id":620580652,"properties":{"denotation":"urban","description":"palms","image":"https://images.mapillary.com/X4f9i_v90Npku9u1vKhR3g/thumb-2048.jpg","leaf_type":"broadleaved","mapillary":"311097337093728","natural":"tree_row"},"geometry":{"type":"LineString","coordinates":[[103.8590923,1.2854174],[103.859005,1.2852021]]}},{"type":"Feature","id":627708719,"properties":{"highway":"secondary","lanes":"3","lit":"yes","maxspeed":"50","name":"Bayfront Avenue","oneway":"yes","surface":"asphalt","toll":"yes"},"geometry":{"type":"LineString","coordinates":[[103.8606769,1.2849871],[103.8606932,1.2850561],[103.8607492,1.2854346],[103.8607537,1.285533]]}},{"type":"Feature","id":627708722,"properties":{"highway":"secondary","lanes":"4","lit":"yes","maxspeed":"50","name":"Bayfront Avenue","oneway":"yes","surface":"asphalt","toll":"yes","turn:lanes":"left|through|through|through"},"geometry":{"type":"LineString","coordinates":[[103.8608828,1.2854291],[103.8608243,1.2850303],[103.8608051,1.2849576]]}},{"type":"Feature","id":634339310,"properties":{"foot":"yes","highway":"primary","lanes":"4","lit":"yes","maxspeed":"60","name":"Sheares Avenue","name:zh":"薛尔思道","oneway":"yes","sidewalk:left":"yes","sidewalk:right":"no","smoothness":"excellent","surface":"asphalt"},"geometry":{"type":"LineString","coordinates":[[103.8606237,1.281789],[103.8606341,1.2818145],[103.8607372,1.2820672]]}},{"type":"Feature","id":634339312,"properties":{"foot":"yes","highway":"primary","lanes":"4","lit":"yes","maxspeed":"60","name":"Sheares Avenue","name:zh":"薛尔思道","oneway":"yes","sidewalk:left":"yes","sidewalk:right":"no","smoothness":"excellent","surface":"asphalt"},"geometry":{"type":"LineString","coordinates":[[103.8607372,1.2820672],[103.8608206,1.2822815]]}},{"type":"Feature","id":635390320,"properties":{"highway":"secondary","lanes":"3","lit":"yes","maxspeed":"50","name":"Bayfront Avenue","oneway":"yes","surface":"asphalt","turn:lanes":"through|through|through"},"geometry":{"type":"LineString","coordinates":[[103.8590254,1.2816669],[103.8589403,1.2815277],[103.8588872,1.2814466]]}},{"type":"Feature","id":635397513,"properties":{"foot":"no","highway":"residential","lanes":"2","lit":"yes","maxspeed":"50","name":"Sheares Link","oneway":"yes","surface":"asphalt"},"geometry":{"type":"LineString","coordinates":[[103.859437,1.2823044],[103.8593164,1.2823801]]}},{"type":"Feature","id":640286985,"properties":{"foot":"yes","highway":"primary","lanes":"4","lit":"yes","maxspeed":"60","name":"Sheares Avenue","name:zh":"薛尔思道","oneway":"yes","smoothness":"excellent","surface":"asphalt"},"geometry":{"type":"LineString","coordinates":[[103.8605368,1.2816189],[103.8606237,1.281789]]}},{"type":"Feature","id":643807943,"properties":{"foot":"no","highway":"residential","lanes":"2","lit":"yes","maxspeed":"50","name":"Sheares Link","oneway":"yes","surface":"asphalt"},"geometry":{"type":"LineString","coordinates":[[103.8593916,1.2824957],[103.8595121,1.282417]]}},{"type":"Feature","id":643807947,"properties":{"highway":"secondary","image":"https://images.mapillary.com/aQw2BAg_l1h1IZY8nZSffA/thumb-2048.jpg","lanes":"4","lit":"yes","mapillary":"497208948372905","maxspeed":"50","name":"Bayfront Avenue","oneway":"yes","surface":"asphalt","turn:lanes":"through|through|through;right|right"},"geometry":{"type":"LineString","coordinates":[[103.8592829,1.2823309],[103.8593164,1.2823801]]}},{"type":"Feature","id":643810038,"properties":{"highway":"secondary","lanes":"3","lit":"yes","maxspeed":"50","name":"Bayfront Avenue","oneway":"yes","surface":"asphalt"},"geometry":{"type":"LineString","coordinates":[[103.8595121,1.282417],[103.859437,1.2823044]]}},{"type":"Feature","id":649785096,"properties":{"highway":"residential","lanes":"3","lit":"yes","maxspeed":"50","name":"Sheares Link","oneway":"yes","smoothness":"good","surface":"asphalt"},"geometry":{"type":"LineString","coordinates":[[103.8601566,1.2818606],[103.8598361,1.2820616]]}},{"type":"Feature","id":649785097,"properties":{"highway":"residential","lanes":"2","lit":"yes","maxspeed":"50","name":"Sheares Link","oneway":"yes","smoothness":"excellent","surface":"asphalt"},"geometry":{"type":"LineString","coordinates":[[103.8605368,1.2816189],[103.8601566,1.2818606]]}},{"type":"Feature","id":657566234,"properties":{"highway":"service","lanes":"1","lit":"yes","maxspeed":"50","name":"Bayfront Link","oneway":"yes","surface":"asphalt","turn:lanes":"right"},"geometry":{"type":"LineString","coordinates":[[103.857543,1.2815344],[103.8573811,1.2816387],[103.8573758,1.2816452]]}},{"type":"Feature","id":657566235,"properties":{"highway":"service","lanes":"1","lit":"yes","maxspeed":"50","name":"Bayfront Link","oneway":"yes","surface":"asphalt"},"geometry":{"type":"LineString","coordinates":[[103.8573758,1.2816452],[103.8573757,1.2816516],[103.8574128,1.2817047],[103.8574317,1.2817331]]}},{"type":"Feature","id":658240543,"properties":{"foot":"yes","highway":"primary","lanes":"4","lit":"yes","maxspeed":"60","name":"Sheares Avenue","name:zh":"薛尔思道","oneway":"yes","sidewalk:left":"yes","sidewalk:right":"no","smoothness":"excellent","surface":"asphalt"},"geometry":{"type":"LineString","coordinates":[[103.8608206,1.2822815],[103.8609166,1.282575]]}},{"type":"Feature","id":658651526,"properties":{"highway":"service","lanes":"1","lit":"yes","oneway":"yes","surface":"asphalt"},"geometry":{"type":"LineString","coordinates":[[103.8606769,1.2849871],[103.8608051,1.2849576]]}},{"type":"Feature","id":661997243,"properties":{"highway":"service","lanes":"1","lit":"yes","oneway":"yes","smoothness":"excellent","surface":"asphalt"},"geometry":{"type":"LineString","coordinates":[[103.8602549,1.2819302],[103.8602293,1.2819051],[103.8602152,1.2818934],[103.860192,1.2818773],[103.8601566,1.2818606]]}},{"type":"Feature","id":667468497,"properties":{"highway":"secondary","lanes":"4","lit":"yes","maxspeed":"50","name":"Bayfront Avenue","oneway":"yes","surface":"asphalt","toll":"yes","turn:lanes":"none|none|none|right"},"geometry":{"type":"LineString","coordinates":[[103.8605329,1.2845325],[103.860588,1.2846915],[103.8606769,1.2849871]]}},{"type":"Feature","id":667468498,"properties":{"highway":"secondary","lanes":"3","lit":"yes","maxspeed":"50","name":"Bayfront Avenue","oneway":"yes","surface":"asphalt","toll":"yes"},"geometry":{"type":"LineString","coordinates":[[103.860365,1.2841296],[103.8604559,1.2843393]]}},{"type":"Feature","id":675353214,"properties":{"foot":"no","highway":"service","lanes":"1","lit":"yes","oneway":"yes"},"geometry":{"type":"LineString","coordinates":[[103.8598087,1.2829571],[103.8597317,1.2829586],[103.8597081,1.2829696],[103.8596867,1.2829905]]}},{"type":"Feature","id":676479279,"properties":{"highway":"secondary","lanes":"3","lit":"yes","maxspeed":"50","name":"Bayfront Avenue","oneway":"yes","surface":"asphalt","turn:lanes":"left;through|through|through"},"geometry":{"type":"LineString","coordinates":[[103.8598087,1.2829571],[103.8595504,1.2824792],[103.8595121,1.282417]]}},{"type":"Feature","id":676705143,"properties":{"highway":"secondary","lanes":"4","lit":"yes","maxspeed":"50","name":"Bayfront Avenue","oneway":"yes","surface":"asphalt","turn:lanes":"none|through|through;right|right"},"geometry":{"type":"LineString","coordinates":[[103.8590069,1.281889],[103.859062,1.2819781]]}},{"type":"Feature","id":687668442,"properties":{"amenity":"fountain","natural":"water"},"geometry":{"type":"LineString","coordinates":[[103.8592392,1.2865425],[103.8592496,1.2865281],[103.8592281,1.2864658],[103.859208,1.2864711],[103.8592264,1.2865257],[103.8592154,1.2865348],[103.8591336,1.2864979],[103.8590565,1.2864376],[103.8589706,1.2863518],[103.8591205,1.286216],[103.8591872,1.2862251],[103.859216,1.2863588],[103.8592274,1.2863793],[103.8592231,1.2864171],[103.8591949,1.2864594],[103.8592811,1.2864423],[103.8593736,1.2863994],[103.8594051,1.2864175],[103.8594447,1.2864383],[103.8594916,1.2864798],[103.8594816,1.2865013],[103.8595393,1.2865154],[103.8595922,1.28651],[103.8596358,1.2864986],[103.8596251,1.2865301],[103.8595372,1.2865583],[103.8594407,1.286575],[103.8593421,1.2865717],[103.8592392,1.2865425]]}},{"type":"Feature","id":687861963,"properties":{"highway":"secondary","image":"https://images.mapillary.com/VbYidyUT35abMW-zuMwbIg/thumb-2048.jpg","lanes":"3","lit":"yes","mapillary":"1224998921231586","maxspeed":"50","name":"Bayfront Avenue","oneway":"yes","surface":"asphalt"},"geometry":{"type":"LineString","coordinates":[[103.8599262,1.283411],[103.8600375,1.2835978],[103.8601498,1.2837756]]}},{"type":"Feature","id":687861964,"properties":{"highway":"secondary","lanes":"3","lit":"yes","maxspeed":"50","name":"Bayfront Avenue","oneway":"yes","surface":"asphalt"},"geometry":{"type":"LineString","coordinates":[[103.8601498,1.2837756],[103.860365,1.2841296]]}},{"type":"Feature","id":687912601,"properties":{"denotation":"urban","description":"palms","leaf_type":"needleleaved","natural":"tree_row"},"geometry":{"type":"LineString","coordinates":[[103.859005,1.2852021],[103.8587661,1.2845951],[103.8586401,1.2843591]]}},{"type":"Feature","id":687958770,"properties":{"highway":"secondary","lanes":"3","lit":"yes","maxheight":"4.5","maxspeed":"50","name":"Bayfront Avenue","oneway":"yes","surface":"asphalt"},"geometry":{"type":"LineString","coordinates":[[103.8596403,1.2829171],[103.8596867,1.2829905],[103.8599262,1.283411]]}},{"type":"Feature","id":687958771,"properties":{"highway":"secondary","lanes":"4","lit":"yes","maxspeed":"50","name":"Bayfront Avenue","oneway":"yes","surface":"asphalt","turn:lanes":"through|through|through;right|right"},"geometry":{"type":"LineString","coordinates":[[103.859062,1.2819781],[103.8592829,1.2823309]]}},{"type":"Feature","id":687958772,"properties":{"highway":"secondary","lanes":"4","lit":"yes","maxspeed":"50","name":"Bayfront Avenue","oneway":"yes","surface":"asphalt","turn:lanes":"left;through|through|through|right"},"geometry":{"type":"LineString","coordinates":[[103.8601491,1.2835076],[103.8598087,1.2829571]]}},{"type":"Feature","id":687958773,"properties":{"highway":"secondary","image":"https://images.mapillary.com/Csgon7IxvvoHo11ZRM9etQ/thumb-2048.jpg","lanes":"3","lit":"yes","mapillary":"772438890083378","maxspeed":"50","name":"Bayfront Avenue","oneway":"yes","surface":"asphalt"},"geometry":{"type":"LineString","coordinates":[[103.8604043,1.2839098],[103.8602821,1.2837086],[103.8601491,1.2835076]]}},{"type":"Feature","id":687965206,"properties":{"image":"https://images.mapillary.com/_I9MYNCG8luT4a104JAfOw/thumb-2048.jpg","leaf_cycle":"evergreen","leaf_type":"broadleaved","mapillary":"1342226679505565","natural":"tree_row"},"geometry":{"type":"LineString","coordinates":[[103.8593182,1.2857877],[103.8591524,1.2856107]]}},{"type":"Feature","id":687965207,"properties":{"bicycle":"yes","highway":"pedestrian","lit":"yes","name":"Olympic Walk","smoothness":"excellent","surface":"paving_stones"},"geometry":{"type":"LineString","coordinates":[[103.8590252,1.2853424],[103.8590552,1.2854214],[103.8591217,1.2855661]]}},{"type":"Feature","id":687965208,"properties":{"bicycle":"yes","highway":"pedestrian","image":"https://images.mapillary.com/PygJlZ4hOWtwUJmaj4T6Ig/thumb-2048.jpg","lit":"yes","mapillary":"3864323283689242","name":"Olympic Walk","surface":"wood"},"geometry":{"type":"LineString","coordinates":[[103.8588707,1.2849375],[103.8589149,1.285083],[103.8590252,1.2853424]]}},{"type":"Feature","id":718971944,"properties":{"highway":"secondary","image":"https://images.mapillary.com/aQw2BAg_l1h1IZY8nZSffA/thumb-2048.jpg","lanes":"3","lit":"yes","mapillary":"497208948372905","maxspeed":"50","name":"Bayfront Avenue","oneway":"yes","surface":"asphalt"},"geometry":{"type":"LineString","coordinates":[[103.8593916,1.2824957],[103.859424,1.2825548],[103.8596403,1.2829171]]}},{"type":"Feature","id":718971945,"properties":{"highway":"secondary","image":"https://images.mapillary.com/aQw2BAg_l1h1IZY8nZSffA/thumb-2048.jpg","lanes":"3","lit":"yes","mapillary":"497208948372905","maxspeed":"50","name":"Bayfront Avenue","oneway":"yes","surface":"asphalt","turn:lanes":"through|through|through"},"geometry":{"type":"LineString","coordinates":[[103.8593164,1.2823801],[103.8593916,1.2824957]]}},{"type":"Feature","id":718971946,"properties":{"highway":"service","lanes":"1","lit":"yes","oneway":"yes","turn:lanes":"right"},"geometry":{"type":"LineString","coordinates":[[103.8598361,1.2820616],[103.8598011,1.2821163],[103.859789,1.2821347],[103.8597736,1.2821565],[103.8597676,1.2821729],[103.8597662,1.2821874],[103.8597703,1.2822008],[103.8597929,1.2822396]]}},{"type":"Feature","id":718971947,"properties":{"highway":"residential","lanes":"2","lit":"yes","maxspeed":"50","name":"Sheares Link","oneway":"yes","surface":"asphalt"},"geometry":{"type":"LineString","coordinates":[[103.8597929,1.2822396],[103.8602549,1.2819302]]}},{"type":"Feature","id":718971948,"properties":{"highway":"residential","lanes":"2","lit":"yes","maxspeed":"50","name":"Sheares Link","oneway":"yes","smoothness":"excellent","surface":"asphalt","turn:lanes":"left|left"},"geometry":{"type":"LineString","coordinates":[[103.8602549,1.2819302],[103.8604304,1.2818153],[103.8604693,1.2817979],[103.8605069,1.2817871],[103.860529,1.2817851],[103.8606237,1.281789]]}},{"type":"Feature","id":742410212,"properties":{"highway":"service","lanes":"2","lit":"yes","maxspeed":"50","name":"Bayfront Link","oneway":"yes","surface":"asphalt"},"geometry":{"type":"LineString","coordinates":[[103.8574317,1.2817331],[103.8576634,1.2815813]]}},{"type":"Feature","id":742410213,"properties":{"highway":"service","lanes":"2","lanes:backward":"1","lanes:forward":"1","lit":"yes","surface":"asphalt","turn:lanes:backward":"left","turn:lanes:forward":"through"},"geometry":{"type":"LineString","coordinates":[[103.8576634,1.2815813],[103.8576711,1.2816189]]}},{"type":"Feature","id":763513330,"properties":{"highway":"secondary","lanes":"3","lit":"yes","maxspeed":"50","name":"Bayfront Avenue","oneway":"yes","surface":"asphalt"},"geometry":{"type":"LineString","coordinates":[[103.859437,1.2823044],[103.859408,1.2822628],[103.8590254,1.2816669]]}},{"type":"Feature","id":763514662,"properties":{"highway":"secondary","lanes":"3","lit":"yes","maxspeed":"50","name":"Bayfront Avenue","oneway":"yes","surface":"asphalt","toll":"yes","turn:lanes":"through|through|through"},"geometry":{"type":"LineString","coordinates":[[103.8604559,1.2843393],[103.8605329,1.2845325]]}},{"type":"Feature","id":763514663,"properties":{"highway":"secondary","lanes":"3","lit":"yes","maxspeed":"50","name":"Bayfront Avenue","oneway":"yes","surface":"asphalt","turn:lanes":"through|through|through;right"},"geometry":{"type":"LineString","coordinates":[[103.8587798,1.2815196],[103.8590069,1.281889]]}},{"type":"Feature","id":763519452,"properties":{"foot":"yes","highway":"primary","lanes":"4","lit":"yes","maxspeed":"60","name":"Sheares Avenue","name:zh":"薛尔思道","note":"Position correct at 26 Oct 2012","oneway":"yes","smoothness":"excellent","source":"GPS","surface":"asphalt","turn:lanes":"through|through|through|through"},"geometry":{"type":"LineString","coordinates":[[103.8608058,1.2817229],[103.8606819,1.2814874]]}},{"type":"Feature","id":765298808,"properties":{"highway":"service","lanes":"2","lit":"yes","maxspeed":"50","name":"Bayfront Link","oneway":"yes","surface":"asphalt"},"geometry":{"type":"LineString","coordinates":[[103.8576634,1.2815813],[103.8578528,1.2814527]]}},{"type":"Feature","id":765298809,"properties":{"highway":"service","lanes":"1","lit":"yes","maxspeed":"50","name":"Bayfront Link","oneway":"yes","surface":"asphalt","turn:lanes":"through"},"geometry":{"type":"LineString","coordinates":[[103.8576997,1.2814301],[103.857543,1.2815344]]}},{"type":"Feature","id":765305485,"properties":{"highway":"service","lanes":"2","lit":"yes","oneway":"yes","turn:lanes":"through|through"},"geometry":{"type":"LineString","coordinates":[[103.8610186,1.2856301],[103.860984,1.2852566],[103.8609601,1.2851315],[103.8609503,1.2850893],[103.8609353,1.2850704],[103.860919,1.2850523],[103.8609073,1.285045],[103.8608979,1.2850407],[103.8608856,1.2850373],[103.8608243,1.2850303]]}},{"type":"Feature","id":772558744,"properties":{"highway":"service","lanes":"1","lit":"yes","oneway":"yes","surface":"asphalt","turn:lanes":"through"},"geometry":{"type":"LineString","coordinates":[[103.860588,1.2846915],[103.8605532,1.2848088],[103.860549,1.2848865],[103.8605495,1.2849614]]}},{"type":"Feature","id":827855855,"properties":{"amenity":"fountain","height":"40","natural":"water"},"geometry":{"type":"LineString","coordinates":[[103.8590518,1.2861185],[103.8590598,1.2860461],[103.8590974,1.2860005],[103.8591644,1.2859737],[103.8592274,1.2859958],[103.8592905,1.2860541],[103.8595212,1.2862013],[103.8595332,1.2861956],[103.8595711,1.2861681],[103.8595986,1.2861319],[103.8596123,1.2861024],[103.8595077,1.2860434],[103.8592958,1.2858369],[103.8591591,1.2857042],[103.8591175,1.2855996],[103.8590223,1.2856767],[103.8589639,1.2857505],[103.8589284,1.2858121],[103.8589592,1.2858269],[103.8589438,1.2858839],[103.8589244,1.2858772],[103.8589324,1.285841],[103.8589136,1.2858349],[103.8588794,1.2859589],[103.8588767,1.2860448],[103.8588861,1.286142],[103.8588982,1.2862217],[103.8589589,1.2863089],[103.8590839,1.2861855],[103.8590518,1.2861185]]}},{"type":"Feature","id":827855909,"properties":{"amenity":"fountain","natural":"water"},"geometry":{"type":"LineString","coordinates":[[103.8595641,1.2863833],[103.8595983,1.286398],[103.8596365,1.2863967],[103.859666,1.2863893],[103.8596606,1.2863116],[103.8596526,1.2862579],[103.8596418,1.2862117],[103.8596117,1.2862144],[103.8595755,1.286213],[103.8595332,1.2861956],[103.8595212,1.2862013],[103.8595376,1.2862221],[103.8595111,1.2862687],[103.8594872,1.2862955],[103.8595158,1.2863364],[103.8595641,1.2863833]]}},{"type":"Feature","id":838457865,"properties":{"highway":"service","lanes":"1","lit":"yes","oneway":"yes","tunnel":"building_passage"},"geometry":{"type":"LineString","coordinates":[[103.859623,1.2831239],[103.85962,1.2831586],[103.8596174,1.2832053],[103.8596114,1.2832801],[103.8596165,1.2833603],[103.8600299,1.2840278]]}},{"type":"Feature","id":1115910269,"properties":{"highway":"service","lit":"yes","oneway":"yes","surface":"paving_stones"},"geometry":{"type":"LineString","coordinates":[[103.8609484,1.2849215],[103.860999,1.2849101]]}},{"type":"Feature","id":1115910270,"properties":{"highway":"service","lit":"yes","oneway":"yes","surface":"paving_stones"},"geometry":{"type":"LineString","coordinates":[[103.8609752,1.2848136],[103.8607807,1.2848685]]}},{"type":"Feature","id":1115910271,"properties":{"highway":"service","lit":"yes","oneway":"yes","tunnel":"building_passage"},"geometry":{"type":"LineString","coordinates":[[103.860999,1.2849101],[103.8611332,1.284883],[103.8611486,1.2848769],[103.8611562,1.2848663],[103.86116,1.2848575],[103.8611607,1.2848367],[103.8611506,1.2847878],[103.8611385,1.2847791],[103.8611137,1.2847777],[103.8609752,1.2848136]]}},{"type":"Feature","id":1387783254,"properties":{"seamark:obstruction:category":"boom","seamark:type":"obstruction","waterway":"floating_barrier"},"geometry":{"type":"LineString","coordinates":[[103.858153,1.285274],[103.8576704,1.2850456],[103.8573072,1.2847763],[103.8572816,1.2842016],[103.8573651,1.2837023]]}},{"type":"Feature","id":737711827,"properties":{"waterway":"canal"},"geometry":{"type":"LineString","coordinates":[[103.8577938,1.2887681],[103.8577363,1.2878433]]}},{"type":"Feature","id":1111001747,"properties":{"area":"yes","highway":"pedestrian","surface":"asphalt"},"geometry":{"type":"LineString","coordinates":[[103.8623287,1.2806848],[103.8622678,1.2806501],[103.8622622,1.2806136],[103.8622562,1.2805747],[103.8622486,1.2802428],[103.862177,1.2800658],[103.8620578,1.2799129],[103.862169,1.2799314],[103.8623074,1.2799248],[103.8624026,1.2798971],[103.86235,1.2799678],[103.8624173,1.2801688],[103.8624605,1.2802319],[103.8628508,1.2806636],[103.8628241,1.2806994],[103.8627966,1.2807362],[103.862538,1.2806845],[103.8623862,1.2806904],[103.8623287,1.2806848]]}},{"type":"Feature","id":171979084,"properties":{"image":"https://images.mapillary.com/VoHBP9Xk15ZQ823iwznyWg/thumb-2048.jpg","leisure":"garden","mapillary":"932365724267908","name":"Supertree Grove","name:zh":"擎天树丛","tourism":"attraction","wheelchair":"yes"},"geometry":{"type":"LineString","coordinates":[[103.8631114,1.2810899],[103.8631654,1.2809877],[103.863233,1.2808597],[103.8634168,1.280923],[103.8635853,1.2809312],[103.86383,1.2809267],[103.8640437,1.2809096],[103.8641364,1.280922],[103.8643895,1.2814326],[103.8646901,1.2817363],[103.8647521,1.2818283],[103.8646349,1.2822278],[103.8646263,1.2825523],[103.8647104,1.2829343],[103.8648979,1.2832388],[103.8648631,1.2832737],[103.8647271,1.2831564],[103.8645533,1.2830109],[103.864417,1.2829212],[103.8642583,1.282858],[103.8641434,1.2828401],[103.8640056,1.2828306],[103.8638891,1.2828412],[103.8637393,1.2828848],[103.8635799,1.2825372],[103.8634378,1.2823727],[103.8632498,1.2822567],[103.8631063,1.2821703],[103.8632578,1.2817586],[103.8632773,1.2815192],[103.8632588,1.2814194],[103.863254,1.2813961],[103.8632427,1.2813407],[103.8631978,1.2812203],[103.8631114,1.2810899]]}},{"type":"Feature","id":171979098,"properties":{"leisure":"garden","name":"Colonial Garden","name:en":"Colonial Garden","name:zh":"殖民花园","tourism":"attraction"},"geometry":{"type":"LineString","coordinates":[[103.8624612,1.2810104],[103.8625819,1.2808844],[103.8627884,1.2809139],[103.8630084,1.2810185],[103.8631452,1.2811874],[103.8632256,1.2814368],[103.8632417,1.2816057],[103.8632259,1.2817368],[103.8631686,1.281857],[103.8630006,1.2818301],[103.8628342,1.2817777],[103.8626777,1.2816823],[103.8625363,1.2815521],[103.8624692,1.2813751],[103.8624612,1.2810104]]}},{"type":"Feature","id":172299352,"properties":{"highway":"pedestrian","noname":"yes","surface":"asphalt"},"geometry":{"type":"LineString","coordinates":[[103.8629604,1.2819206],[103.8629739,1.2817698],[103.8629844,1.2817408],[103.8629924,1.2817073],[103.8629518,1.2816499],[103.8628944,1.2813771],[103.8627766,1.2812264],[103.8623862,1.2806904],[103.8623245,1.2806281],[103.8623157,1.2802103],[103.862169,1.2799314]]}},{"type":"Feature","id":171979086,"properties":{"leisure":"garden","name":"Malay Garden","name:zh":"马来族花园"},"geometry":{"type":"LineString","coordinates":[[103.8630861,1.2826006],[103.8628823,1.2825845],[103.8628796,1.2823297],[103.8631076,1.2823458],[103.8630861,1.2826006]]}},{"type":"Feature","id":171979089,"properties":{"leisure":"garden","name":"Chinese Garden","name:zh":"华族花园","wikidata":"Q5100456","wikimedia_commons":"Category:Chinese Garden, Singapore","wikipedia":"en:Chinese Garden, Singapore"},"geometry":{"type":"LineString","coordinates":[[103.8634235,1.2831948],[103.8633876,1.2831086],[103.8633829,1.2830213],[103.8634337,1.2829469],[103.863518,1.2828984],[103.8635855,1.2828959],[103.8636676,1.2829829],[103.8637074,1.2830364],[103.8637118,1.2831292],[103.8636987,1.2832305],[103.8636768,1.2832754],[103.8636464,1.2833013],[103.8635817,1.283286],[103.8635171,1.2832566],[103.8634235,1.2831948]]}},{"type":"Feature","id":172205489,"properties":{"highway":"pedestrian","lit":"yes","name":"Dragonfly Bridge","name:en":"Dragonfly Bridge","name:ms":"Jambatan Dragonfly","name:zh":"蜻蜓桥","smoothness":"excellent","surface":"asphalt"},"geometry":{"type":"LineString","coordinates":[[103.8620098,1.2825557],[103.8619353,1.2825719],[103.861887,1.2825778],[103.8618521,1.2825713],[103.8618165,1.2825353],[103.8617164,1.2823982]]}},{"type":"Feature","id":172297291,"properties":{"highway":"pedestrian","lit":"yes","noname":"yes","smoothness":"good","surface":"concrete"},"geometry":{"type":"LineString","coordinates":[[103.8628044,1.2823981],[103.8628505,1.2824001],[103.8628811,1.2824019],[103.8629234,1.2824186]]}},{"type":"Feature","id":172468531,"properties":{"natural":"scrub"},"geometry":{"type":"LineString","coordinates":[[103.8638036,1.2839963],[103.8638135,1.2839377],[103.863681,1.2838737],[103.8634976,1.2839874],[103.8634534,1.2839467],[103.8636977,1.2838162],[103.8636639,1.2837818],[103.8637701,1.2837154],[103.8637392,1.2836274],[103.8637979,1.2836133],[103.8637953,1.2835788],[103.8645535,1.2836926],[103.8645524,1.2837423],[103.864337,1.2837224],[103.8640421,1.2839079],[103.8640377,1.2838737],[103.863903,1.2839653],[103.8638036,1.2839963]]}},{"type":"Feature","id":172892320,"properties":{"highway":"pedestrian","noname":"yes","smoothness":"good","surface":"concrete"},"geometry":{"type":"LineString","coordinates":[[103.8629291,1.2822102],[103.8629165,1.2823494],[103.8629234,1.2824186],[103.8631596,1.282531],[103.8633381,1.2826092],[103.8635303,1.2829605],[103.86358,1.2830942],[103.8637308,1.2830778],[103.8638368,1.2831],[103.8640335,1.2831325],[103.8641404,1.2831908],[103.8643318,1.2832886],[103.8646605,1.2834014],[103.8647653,1.2834451],[103.8647938,1.2834647],[103.8648785,1.2835669],[103.8649432,1.2836206],[103.8650051,1.2836592],[103.8650814,1.2836897],[103.865211,1.283719]]}},{"type":"Feature","id":1505835828,"properties":{"leisure":"playground"},"geometry":{"type":"LineString","coordinates":[[103.8623453,1.2847764],[103.8624034,1.2848212],[103.8623951,1.2848768],[103.8623316,1.2849462],[103.8622367,1.2849893],[103.8621637,1.2849899],[103.8620873,1.2849789],[103.8620275,1.2849748],[103.8619928,1.2850188],[103.8619413,1.2851018],[103.8619008,1.2851391],[103.8618575,1.2851498],[103.8618506,1.285125],[103.8618474,1.2849417],[103.8619171,1.2848711],[103.8619957,1.2848406],[103.8620659,1.2848913],[103.862221,1.2848763],[103.8623453,1.2847764]]}},{"type":"Feature","id":1505835829,"properties":{"leisure":"playground"},"geometry":{"type":"LineString","coordinates":[[103.8622532,1.2847867],[103.8620994,1.28475],[103.8620094,1.2847941],[103.8620777,1.2848579],[103.862194,1.2848465],[103.8622532,1.2847867]]}}]}